{"type":"FeatureCollection","features":[{"type":"Feature","properties":{"name":"čistička odpadních vod","man_made":"wastewater_plant","osm_type":"node","osm_id":"813612644"},"geometry":{"type":"Point","coordinates":[14.396173,50.800663]}},{"type":"Feature","properties":{"man_made":"water_works","osm_type":"node","osm_id":"1357010151"},"geometry":{"type":"Point","coordinates":[14.572343,50.856395]}},{"type":"Feature","properties":{"name":"Vodárna Proboštov","man_made":"water_works","osm_type":"node","osm_id":"1913919808"},"geometry":{"type":"Point","coordinates":[14.16222,50.621817]}},{"type":"Feature","properties":{"man_made":"wastewater_plant","osm_type":"node","osm_id":"2447342756"},"geometry":{"type":"Point","coordinates":[13.709494,50.538791]}},{"type":"Feature","properties":{"name":"Vodárna Köllborn","man_made":"water_works","osm_type":"node","osm_id":"2636585758"},"geometry":{"type":"Point","coordinates":[14.208213,50.796695]}},{"type":"Feature","properties":{"name":"Vodárna Vlčí pramen","man_made":"water_works","osm_type":"node","osm_id":"2637636877"},"geometry":{"type":"Point","coordinates":[14.195689,50.791882]}},{"type":"Feature","properties":{"man_made":"water_works","osm_type":"node","osm_id":"2896274800"},"geometry":{"type":"Point","coordinates":[14.434337,50.501677]}},{"type":"Feature","properties":{"man_made":"water_works","osm_type":"node","osm_id":"3633669105"},"geometry":{"type":"Point","coordinates":[14.075354,50.763813]}},{"type":"Feature","properties":{"man_made":"water_works","osm_type":"node","osm_id":"3685104440"},"geometry":{"type":"Point","coordinates":[14.092351,50.388946]}},{"type":"Feature","properties":{"man_made":"water_works","osm_type":"node","osm_id":"3742206091"},"geometry":{"type":"Point","coordinates":[14.291541,50.39398]}},{"type":"Feature","properties":{"man_made":"water_works","osm_type":"node","osm_id":"3752808611"},"geometry":{"type":"Point","coordinates":[14.000138,50.677503]}},{"type":"Feature","properties":{"man_made":"water_works","osm_type":"node","osm_id":"3789274565"},"geometry":{"type":"Point","coordinates":[13.980564,50.302671]}},{"type":"Feature","properties":{"man_made":"water_works","osm_type":"node","osm_id":"3868874959"},"geometry":{"type":"Point","coordinates":[14.245398,50.785962]}},{"type":"Feature","properties":{"man_made":"water_works","osm_type":"node","osm_id":"7802329739"},"geometry":{"type":"Point","coordinates":[13.506778,50.231438]}},{"type":"Feature","properties":{"man_made":"water_works","osm_type":"node","osm_id":"8266461586"},"geometry":{"type":"Point","coordinates":[14.201373,50.635637]}},{"type":"Feature","properties":{"man_made":"water_works","osm_type":"node","osm_id":"8280462502"},"geometry":{"type":"Point","coordinates":[13.750019,50.681159]}},{"type":"Feature","properties":{"man_made":"water_works","osm_type":"node","osm_id":"8594384060"},"geometry":{"type":"Point","coordinates":[14.091204,50.697769]}},{"type":"Feature","properties":{"man_made":"water_works","osm_type":"node","osm_id":"9191773611"},"geometry":{"type":"Point","coordinates":[14.5538,50.866628]}},{"type":"Feature","properties":{"man_made":"water_works","osm_type":"node","osm_id":"9191773612"},"geometry":{"type":"Point","coordinates":[14.572345,50.841798]}},{"type":"Feature","properties":{"man_made":"water_works","osm_type":"node","osm_id":"9191773613"},"geometry":{"type":"Point","coordinates":[14.532962,50.851519]}},{"type":"Feature","properties":{"man_made":"water_works","osm_type":"node","osm_id":"9796439665"},"geometry":{"type":"Point","coordinates":[13.415815,50.395825]}},{"type":"Feature","properties":{"man_made":"water_works","osm_type":"node","osm_id":"9809122414"},"geometry":{"type":"Point","coordinates":[14.276757,50.637479]}},{"type":"Feature","properties":{"name":"ÚV Velké Žernoseky","man_made":"water_works","operator":"SČVK","osm_type":"node","osm_id":"11684826055"},"geometry":{"type":"Point","coordinates":[14.061202,50.520409]}},{"type":"Feature","properties":{"man_made":"water_works","osm_type":"node","osm_id":"12175497399"},"geometry":{"type":"Point","coordinates":[13.796106,50.730234]}},{"type":"Feature","properties":{"man_made":"water_works","osm_type":"node","osm_id":"12175525711"},"geometry":{"type":"Point","coordinates":[13.804939,50.727124]}},{"type":"Feature","properties":{"man_made":"water_works","osm_type":"node","osm_id":"12175525712"},"geometry":{"type":"Point","coordinates":[13.805767,50.726042]}},{"type":"Feature","properties":{"man_made":"water_works","osm_type":"node","osm_id":"12175525716"},"geometry":{"type":"Point","coordinates":[13.807459,50.724754]}},{"type":"Feature","properties":{"man_made":"water_works","osm_type":"node","osm_id":"12175525723"},"geometry":{"type":"Point","coordinates":[13.813083,50.719203]}},{"type":"Feature","properties":{"man_made":"wastewater_plant","osm_type":"node","osm_id":"12847608600"},"geometry":{"type":"Point","coordinates":[14.538943,50.816464]}},{"type":"Feature","properties":{"man_made":"water_works","osm_type":"node","osm_id":"13088572939"},"geometry":{"type":"Point","coordinates":[13.725181,50.661009]}},{"type":"Feature","properties":{"man_made":"water_works","osm_type":"node","osm_id":"13808384502"},"geometry":{"type":"Point","coordinates":[13.970981,50.577275]}}]}