{"type":"FeatureCollection","features":[{"type":"Feature","properties":{"jmeno":"Ledvice","typ":"parní","vykon":660},"geometry":{"type":"Point","coordinates":[13.77966,50.57559]}},{"type":"Feature","properties":{"jmeno":"Komořany","typ":"parní","vykon":239},"geometry":{"type":"Point","coordinates":[13.5754,50.5201]}},{"type":"Feature","properties":{"typ":"parní","vykon":112},"geometry":{"type":"Point","coordinates":[13.62154,50.56675]}},{"type":"Feature","properties":{"jmeno":"Prunéřov","typ":"parní","vykon":750},"geometry":{"type":"Point","coordinates":[13.25939,50.41814]}},{"type":"Feature","properties":{"jmeno":"Počerady","typ":"parní","vykon":1050},"geometry":{"type":"Point","coordinates":[13.67723,50.42784]}},{"type":"Feature","properties":{"jmeno":"Tušimice","typ":"parní","vykon":800},"geometry":{"type":"Point","coordinates":[13.3399,50.38393]}},{"type":"Feature","properties":{"jmeno":"Papírny Štětí"},"geometry":{"type":"Point","coordinates":[14.37423,50.46694]}}]}