{"type":"FeatureCollection","features":[{"type":"Feature","properties":{"typ":"HZ","typ_p":"hasičská zbrojnice","obec":"Měrunice","id_jpo":"426123"},"geometry":{"type":"Point","coordinates":[13.81766,50.47828]}},{"type":"Feature","properties":{"typ":"HZ","typ_p":"hasičská zbrojnice","obec":"Dubí","id_jpo":"426105"},"geometry":{"type":"Point","coordinates":[13.79229,50.67536]}},{"type":"Feature","properties":{"typ":"HZ","typ_p":"hasičská zbrojnice","obec":"Háj u Duchcova","id_jpo":"426107"},"geometry":{"type":"Point","coordinates":[13.71514,50.63037]}},{"type":"Feature","properties":{"typ":"HZ","typ_p":"hasičská zbrojnice","obec":"Teplice","id_jpo":"426134"},"geometry":{"type":"Point","coordinates":[13.85532,50.66175]}},{"type":"Feature","properties":{"typ":"HZ","typ_p":"hasičská zbrojnice","obec":"Bystřany","id_jpo":"426102"},"geometry":{"type":"Point","coordinates":[13.88029,50.61424]}},{"type":"Feature","properties":{"typ":"HZ","typ_p":"hasičská zbrojnice","obec":"Koštice","id_jpo":"424146"},"geometry":{"type":"Point","coordinates":[13.93954,50.40167]}},{"type":"Feature","properties":{"typ":"HZ","typ_p":"hasičská zbrojnice","obec":"Kadaň","id_jpo":"422604"},"geometry":{"type":"Point","coordinates":[13.33425,50.38174]}},{"type":"Feature","properties":{"typ":"HS","typ_p":"hasičská stanice","obec":"Litoměřice","id_jpo":"423010"},"geometry":{"type":"Point","coordinates":[14.15406,50.53832]}},{"type":"Feature","properties":{"typ":"HZ","typ_p":"hasičská zbrojnice","obec":"Radonice","id_jpo":"422147"},"geometry":{"type":"Point","coordinates":[13.28507,50.29578]}},{"type":"Feature","properties":{"typ":"HZ","typ_p":"hasičská zbrojnice","obec":"Peruc","id_jpo":"424193"},"geometry":{"type":"Point","coordinates":[13.96428,50.34222]}},{"type":"Feature","properties":{"typ":"HZ","typ_p":"hasičská zbrojnice","obec":"Vejprty","id_jpo":"422154"},"geometry":{"type":"Point","coordinates":[13.02937,50.49361]}},{"type":"Feature","properties":{"typ":"HZ","typ_p":"hasičská zbrojnice","obec":"Líšťany","id_jpo":"424173"},"geometry":{"type":"Point","coordinates":[13.80246,50.31249]}},{"type":"Feature","properties":{"typ":"HZ","typ_p":"hasičská zbrojnice","obec":"Panenský Týnec","id_jpo":"424187"},"geometry":{"type":"Point","coordinates":[13.91697,50.29513]}},{"type":"Feature","properties":{"typ":"HZ","typ_p":"hasičská zbrojnice","obec":"Travčice","id_jpo":"423215"},"geometry":{"type":"Point","coordinates":[14.19063,50.50301]}},{"type":"Feature","properties":{"typ":"HZ","typ_p":"hasičská zbrojnice","obec":"Meziboří","id_jpo":"425124"},"geometry":{"type":"Point","coordinates":[13.61099,50.61995]}},{"type":"Feature","properties":{"typ":"HS","typ_p":"hasičská stanice","obec":"Louny","id_jpo":"424011"},"geometry":{"type":"Point","coordinates":[13.80924,50.35943]}},{"type":"Feature","properties":{"typ":"HZ","typ_p":"hasičská zbrojnice","obec":"Vroutek","id_jpo":"424254"},"geometry":{"type":"Point","coordinates":[13.3849,50.17798]}},{"type":"Feature","properties":{"typ":"HZ","typ_p":"hasičská zbrojnice","obec":"Dobroměřice","id_jpo":"424120"},"geometry":{"type":"Point","coordinates":[13.79668,50.37221]}},{"type":"Feature","properties":{"typ":"HZ","typ_p":"hasičská zbrojnice","obec":"Počedělice","id_jpo":"424199"},"geometry":{"type":"Point","coordinates":[13.88905,50.3718]}},{"type":"Feature","properties":{"typ":"HZ","typ_p":"hasičská zbrojnice","obec":"Obrnice","id_jpo":"425127"},"geometry":{"type":"Point","coordinates":[13.69234,50.50544]}},{"type":"Feature","properties":{"typ":"HZ","typ_p":"hasičská zbrojnice","obec":"Proboštov","id_jpo":"426132"},"geometry":{"type":"Point","coordinates":[13.8338,50.66687]}},{"type":"Feature","properties":{"typ":"HS","typ_p":"hasičská stanice","obec":"Chomutov","id_jpo":"422010"},"geometry":{"type":"Point","coordinates":[13.41858,50.45608]}},{"type":"Feature","properties":{"typ":"HZ","typ_p":"hasičská zbrojnice","obec":"Kovářská","id_jpo":"422123"},"geometry":{"type":"Point","coordinates":[13.05545,50.44044]}},{"type":"Feature","properties":{"typ":"HS","typ_p":"hasičská stanice","obec":"Děčín","id_jpo":"421010"},"geometry":{"type":"Point","coordinates":[14.21417,50.77513]}},{"type":"Feature","properties":{"typ":"HZ","typ_p":"hasičská zbrojnice","obec":"Mašťov","id_jpo":"422132"},"geometry":{"type":"Point","coordinates":[13.27963,50.26155]}},{"type":"Feature","properties":{"typ":"HZ","typ_p":"hasičská zbrojnice","obec":"Staré Křečany","id_jpo":"421112"},"geometry":{"type":"Point","coordinates":[14.44088,50.94738]}},{"type":"Feature","properties":{"typ":"HZ","typ_p":"hasičská zbrojnice","obec":"Zbrašín","id_jpo":"424260"},"geometry":{"type":"Point","coordinates":[13.76579,50.29867]}},{"type":"Feature","properties":{"typ":"HZ","typ_p":"hasičská zbrojnice","obec":"Kostomlaty pod Řípem","id_jpo":"423148"},"geometry":{"type":"Point","coordinates":[14.33246,50.38399]}},{"type":"Feature","properties":{"typ":"HZ","typ_p":"hasičská zbrojnice","obec":"Lkáň","id_jpo":"423162"},"geometry":{"type":"Point","coordinates":[13.9644,50.44381]}},{"type":"Feature","properties":{"typ":"HZ","typ_p":"hasičská zbrojnice","obec":"Horní Jiřetín","id_jpo":"425111"},"geometry":{"type":"Point","coordinates":[13.54133,50.57823]}},{"type":"Feature","properties":{"typ":"HZ","typ_p":"hasičská zbrojnice","obec":"Kryštofovy Hamry","id_jpo":"422144"},"geometry":{"type":"Point","coordinates":[13.1355,50.50308]}},{"type":"Feature","properties":{"typ":"HZ","typ_p":"hasičská zbrojnice","obec":"Spořice","id_jpo":"422149"},"geometry":{"type":"Point","coordinates":[13.3901,50.44389]}},{"type":"Feature","properties":{"typ":"HZ","typ_p":"hasičská zbrojnice","obec":"Labská Stráň","id_jpo":"421107"},"geometry":{"type":"Point","coordinates":[14.23336,50.85014]}},{"type":"Feature","properties":{"typ":"HZ","typ_p":"hasičská zbrojnice","obec":"Smolnice","id_jpo":"424225"},"geometry":{"type":"Point","coordinates":[13.84989,50.30976]}},{"type":"Feature","properties":{"typ":"HZ","typ_p":"hasičská zbrojnice","obec":"Blatno","id_jpo":"422105"},"geometry":{"type":"Point","coordinates":[13.35841,50.51174]}},{"type":"Feature","properties":{"typ":"HZ","typ_p":"hasičská zbrojnice","obec":"Černčice","id_jpo":"424115"},"geometry":{"type":"Point","coordinates":[13.84794,50.36479]}},{"type":"Feature","properties":{"typ":"HZ","typ_p":"hasičská zbrojnice","obec":"Okounov","id_jpo":"422139"},"geometry":{"type":"Point","coordinates":[13.10675,50.36242]}},{"type":"Feature","properties":{"typ":"HZ","typ_p":"hasičská zbrojnice","obec":"Chožov","id_jpo":"424240"},"geometry":{"type":"Point","coordinates":[13.87317,50.42242]}},{"type":"Feature","properties":{"typ":"HZ","typ_p":"hasičská zbrojnice","obec":"Lubenec","id_jpo":"424174"},"geometry":{"type":"Point","coordinates":[13.31541,50.13468]}},{"type":"Feature","properties":{"typ":"HZ","typ_p":"hasičská zbrojnice","obec":"Kadaň","id_jpo":"422100"},"geometry":{"type":"Point","coordinates":[13.27255,50.37867]}},{"type":"Feature","properties":{"typ":"HZ","typ_p":"hasičská zbrojnice","obec":"Bečov","id_jpo":"425101"},"geometry":{"type":"Point","coordinates":[13.71835,50.44803]}},{"type":"Feature","properties":{"typ":"HZ","typ_p":"hasičská zbrojnice","obec":"Hora Svaté Kateřiny","id_jpo":"425110"},"geometry":{"type":"Point","coordinates":[13.44164,50.60526]}},{"type":"Feature","properties":{"typ":"HZ","typ_p":"hasičská zbrojnice","obec":"Brandov","id_jpo":"425104"},"geometry":{"type":"Point","coordinates":[13.3877,50.63478]}},{"type":"Feature","properties":{"typ":"HZ","typ_p":"hasičská zbrojnice","obec":"Očihov","id_jpo":"424185"},"geometry":{"type":"Point","coordinates":[13.46048,50.19905]}},{"type":"Feature","properties":{"typ":"HZ","typ_p":"hasičská zbrojnice","obec":"Žalany","id_jpo":"426140"},"geometry":{"type":"Point","coordinates":[13.90744,50.59018]}},{"type":"Feature","properties":{"typ":"HZ","typ_p":"hasičská zbrojnice","obec":"Bynovec","id_jpo":"421108"},"geometry":{"type":"Point","coordinates":[14.26429,50.82091]}},{"type":"Feature","properties":{"typ":"HZ","typ_p":"hasičská zbrojnice","obec":"Jílové","id_jpo":"421157"},"geometry":{"type":"Point","coordinates":[14.10766,50.76205]}},{"type":"Feature","properties":{"typ":"HS","typ_p":"hasičská stanice","obec":"Teplice","id_jpo":"426010"},"geometry":{"type":"Point","coordinates":[13.83762,50.6537]}},{"type":"Feature","properties":{"typ":"HZ","typ_p":"hasičská zbrojnice","obec":"Benešov nad Ploučnicí","id_jpo":"421109"},"geometry":{"type":"Point","coordinates":[14.30988,50.74061]}},{"type":"Feature","properties":{"typ":"HZ","typ_p":"hasičská zbrojnice","obec":"Hora Svatého Šebestiána","id_jpo":"422114"},"geometry":{"type":"Point","coordinates":[13.25205,50.51162]}},{"type":"Feature","properties":{"typ":"HZ","typ_p":"hasičská zbrojnice","obec":"hasičská zbrojnice neevidovaná HZS","id_jpo":"111111111"},"geometry":{"type":"Point","coordinates":[13.45565,50.43908]}},{"type":"Feature","properties":{"typ":"HZ","typ_p":"hasičská zbrojnice","obec":"Krásná Lípa","id_jpo":"421140"},"geometry":{"type":"Point","coordinates":[14.50811,50.91471]}},{"type":"Feature","properties":{"typ":"HZ","typ_p":"hasičská zbrojnice","obec":"Starý Šachov","id_jpo":"421167"},"geometry":{"type":"Point","coordinates":[14.3712,50.71779]}},{"type":"Feature","properties":{"typ":"HZ","typ_p":"hasičská zbrojnice","obec":"Chřibská","id_jpo":"421132"},"geometry":{"type":"Point","coordinates":[14.4849,50.85989]}},{"type":"Feature","properties":{"typ":"HZ","typ_p":"hasičská zbrojnice","obec":"Nepomyšl","id_jpo":"424183"},"geometry":{"type":"Point","coordinates":[13.31043,50.21589]}},{"type":"Feature","properties":{"typ":"HZ","typ_p":"hasičská zbrojnice","obec":"Postoloprty","id_jpo":"424206"},"geometry":{"type":"Point","coordinates":[13.70057,50.36144]}},{"type":"Feature","properties":{"typ":"HZ","typ_p":"hasičská zbrojnice","obec":"Malé Březno","id_jpo":"425122"},"geometry":{"type":"Point","coordinates":[13.55963,50.46346]}},{"type":"Feature","properties":{"typ":"HZ","typ_p":"hasičská zbrojnice","obec":"Přestavlky","id_jpo":"423189"},"geometry":{"type":"Point","coordinates":[14.19439,50.40456]}},{"type":"Feature","properties":{"typ":"HZ","typ_p":"hasičská zbrojnice","obec":"Libkovice pod Řípem","id_jpo":"423157"},"geometry":{"type":"Point","coordinates":[14.34319,50.393]}},{"type":"Feature","properties":{"typ":"HZ","typ_p":"hasičská zbrojnice","obec":"Strupčice","id_jpo":"422150"},"geometry":{"type":"Point","coordinates":[13.52898,50.46935]}},{"type":"Feature","properties":{"typ":"HZ","typ_p":"hasičská zbrojnice","obec":"Petrohrad","id_jpo":"424194"},"geometry":{"type":"Point","coordinates":[13.44382,50.12821]}},{"type":"Feature","properties":{"typ":"HS","typ_p":"hasičská stanice","obec":"Litvínov","id_jpo":"425011"},"geometry":{"type":"Point","coordinates":[13.59866,50.59953]}},{"type":"Feature","properties":{"typ":"HZ","typ_p":"hasičská zbrojnice","obec":"Košťany","id_jpo":"426117"},"geometry":{"type":"Point","coordinates":[13.75511,50.65573]}},{"type":"Feature","properties":{"typ":"HZ","typ_p":"hasičská zbrojnice","obec":"Kalek","id_jpo":"422121"},"geometry":{"type":"Point","coordinates":[13.29637,50.57162]}},{"type":"Feature","properties":{"typ":"HZ","typ_p":"hasičská zbrojnice","obec":"Braňany","id_jpo":"425103"},"geometry":{"type":"Point","coordinates":[13.70881,50.54236]}},{"type":"Feature","properties":{"typ":"HZ","typ_p":"hasičská zbrojnice","obec":"Kryry","id_jpo":"424155"},"geometry":{"type":"Point","coordinates":[13.42052,50.172]}},{"type":"Feature","properties":{"typ":"HZ","typ_p":"hasičská zbrojnice","obec":"Vrbice","id_jpo":"423230"},"geometry":{"type":"Point","coordinates":[14.28682,50.48357]}},{"type":"Feature","properties":{"typ":"HZ","typ_p":"hasičská zbrojnice","obec":"Obora","id_jpo":"424116"},"geometry":{"type":"Point","coordinates":[13.86507,50.37246]}},{"type":"Feature","properties":{"typ":"HZ","typ_p":"hasičská zbrojnice","obec":"Úherce","id_jpo":"424188"},"geometry":{"type":"Point","coordinates":[13.95292,50.29822]}},{"type":"Feature","properties":{"typ":"HZ","typ_p":"hasičská zbrojnice","obec":"Světec","id_jpo":"426120"},"geometry":{"type":"Point","coordinates":[13.84015,50.56277]}},{"type":"Feature","properties":{"typ":"HZ","typ_p":"hasičská zbrojnice","obec":"Lenešice","id_jpo":"424156"},"geometry":{"type":"Point","coordinates":[13.75936,50.37823]}},{"type":"Feature","properties":{"typ":"HZ","typ_p":"hasičská zbrojnice","obec":"Peruc","id_jpo":"424192"},"geometry":{"type":"Point","coordinates":[13.96186,50.37449]}},{"type":"Feature","properties":{"typ":"HZ","typ_p":"hasičská zbrojnice","obec":"Chomutov","id_jpo":"422605"},"geometry":{"type":"Point","coordinates":[13.38927,50.45663]}},{"type":"Feature","properties":{"typ":"HZ","typ_p":"hasičská zbrojnice","obec":"Ústí nad Labem","id_jpo":"427603"},"geometry":{"type":"Point","coordinates":[14.01474,50.65601]}},{"type":"Feature","properties":{"typ":"HZ","typ_p":"hasičská zbrojnice","obec":"Peruc","id_jpo":"424235"},"geometry":{"type":"Point","coordinates":[13.97129,50.31159]}},{"type":"Feature","properties":{"typ":"HZ","typ_p":"hasičská zbrojnice","obec":"Vinařice","id_jpo":"424251"},"geometry":{"type":"Point","coordinates":[13.82592,50.26531]}},{"type":"Feature","properties":{"typ":"HZ","typ_p":"hasičská zbrojnice","obec":"Kladruby","id_jpo":"426115"},"geometry":{"type":"Point","coordinates":[13.82659,50.61332]}},{"type":"Feature","properties":{"typ":"HZ","typ_p":"hasičská zbrojnice","obec":"Velemyšleves","id_jpo":"424246"},"geometry":{"type":"Point","coordinates":[13.56616,50.40277]}},{"type":"Feature","properties":{"typ":"HZ","typ_p":"hasičská zbrojnice","obec":"Most","id_jpo":"425802"},"geometry":{"type":"Point","coordinates":[13.56898,50.52078]}},{"type":"Feature","properties":{"typ":"HZ","typ_p":"hasičská zbrojnice","obec":"Libotenice","id_jpo":"423160"},"geometry":{"type":"Point","coordinates":[14.22897,50.47736]}},{"type":"Feature","properties":{"typ":"HZ","typ_p":"hasičská zbrojnice","obec":"Velké Žernoseky","id_jpo":"423226"},"geometry":{"type":"Point","coordinates":[14.06508,50.54129]}},{"type":"Feature","properties":{"typ":"HZ","typ_p":"hasičská zbrojnice","obec":"Ploskovice","id_jpo":"423181"},"geometry":{"type":"Point","coordinates":[14.19942,50.56088]}},{"type":"Feature","properties":{"typ":"HZ","typ_p":"hasičská zbrojnice","obec":"Prackovice nad Labem","id_jpo":"423187"},"geometry":{"type":"Point","coordinates":[14.03321,50.55697]}},{"type":"Feature","properties":{"typ":"HZ","typ_p":"hasičská zbrojnice","obec":"Libočany","id_jpo":"424166"},"geometry":{"type":"Point","coordinates":[13.5154,50.33359]}},{"type":"Feature","properties":{"typ":"HZ","typ_p":"hasičská zbrojnice","obec":"Lovečkovice","id_jpo":"423164"},"geometry":{"type":"Point","coordinates":[14.26319,50.62082]}},{"type":"Feature","properties":{"typ":"HZ","typ_p":"hasičská zbrojnice","obec":"Chbany","id_jpo":"422116"},"geometry":{"type":"Point","coordinates":[13.43016,50.33206]}},{"type":"Feature","properties":{"typ":"HZ","typ_p":"hasičská zbrojnice","obec":"Bechlín","id_jpo":"423252"},"geometry":{"type":"Point","coordinates":[14.3326,50.43791]}},{"type":"Feature","properties":{"typ":"HS","typ_p":"hasičská stanice","obec":"Roudnice nad Labem","id_jpo":"423014"},"geometry":{"type":"Point","coordinates":[14.24768,50.41625]}},{"type":"Feature","properties":{"typ":"HZ","typ_p":"hasičská zbrojnice","obec":"Snědovice","id_jpo":"423202"},"geometry":{"type":"Point","coordinates":[14.38889,50.50249]}},{"type":"Feature","properties":{"typ":"HS","typ_p":"hasičská stanice","obec":"Úštěk","id_jpo":"423013"},"geometry":{"type":"Point","coordinates":[14.34805,50.58646]}},{"type":"Feature","properties":{"typ":"HS","typ_p":"hasičská stanice","obec":"Lovosice","id_jpo":"423011"},"geometry":{"type":"Point","coordinates":[14.05151,50.50669]}},{"type":"Feature","properties":{"typ":"HZ","typ_p":"hasičská zbrojnice","obec":"Hoštka","id_jpo":"423242"},"geometry":{"type":"Point","coordinates":[14.32325,50.51027]}},{"type":"Feature","properties":{"typ":"HZ","typ_p":"hasičská zbrojnice","obec":"Vražkov","id_jpo":"423229"},"geometry":{"type":"Point","coordinates":[14.26856,50.37257]}},{"type":"Feature","properties":{"typ":"HZ","typ_p":"hasičská zbrojnice","obec":"Sulejovice","id_jpo":"423210"},"geometry":{"type":"Point","coordinates":[14.03701,50.49894]}},{"type":"Feature","properties":{"typ":"HZ","typ_p":"hasičská zbrojnice","obec":"Černouček","id_jpo":"423156"},"geometry":{"type":"Point","coordinates":[14.30522,50.35816]}},{"type":"Feature","properties":{"typ":"HZ","typ_p":"hasičská zbrojnice","obec":"Klapý","id_jpo":"423145"},"geometry":{"type":"Point","coordinates":[14.00027,50.43271]}},{"type":"Feature","properties":{"typ":"HZ","typ_p":"hasičská zbrojnice","obec":"Bechlín","id_jpo":"423101"},"geometry":{"type":"Point","coordinates":[14.3422,50.41632]}},{"type":"Feature","properties":{"typ":"HZ","typ_p":"hasičská zbrojnice","obec":"Hrobce","id_jpo":"423132"},"geometry":{"type":"Point","coordinates":[14.22927,50.46091]}},{"type":"Feature","properties":{"typ":"HZ","typ_p":"hasičská zbrojnice","obec":"Roudnice nad Labem","id_jpo":"423188"},"geometry":{"type":"Point","coordinates":[14.24754,50.42401]}},{"type":"Feature","properties":{"typ":"HZ","typ_p":"hasičská zbrojnice","obec":"Třebívlice","id_jpo":"423218"},"geometry":{"type":"Point","coordinates":[13.90082,50.45829]}},{"type":"Feature","properties":{"typ":"HZ","typ_p":"hasičská zbrojnice","obec":"Ročov","id_jpo":"424213"},"geometry":{"type":"Point","coordinates":[13.77064,50.25391]}},{"type":"Feature","properties":{"typ":"HZ","typ_p":"hasičská zbrojnice","obec":"Jiříkov","id_jpo":"421137"},"geometry":{"type":"Point","coordinates":[14.56701,50.99315]}},{"type":"Feature","properties":{"typ":"HZ","typ_p":"hasičská zbrojnice","obec":"Rybniště","id_jpo":"421163"},"geometry":{"type":"Point","coordinates":[14.51301,50.88144]}},{"type":"Feature","properties":{"typ":"HZ","typ_p":"hasičská zbrojnice","obec":"Rumburk","id_jpo":"421159"},"geometry":{"type":"Point","coordinates":[14.55644,50.95144]}},{"type":"Feature","properties":{"typ":"HZ","typ_p":"hasičská zbrojnice","obec":"Dolní Poustevna","id_jpo":"421120"},"geometry":{"type":"Point","coordinates":[14.28502,50.98182]}},{"type":"Feature","properties":{"typ":"HZ","typ_p":"hasičská zbrojnice","obec":"Hřensko","id_jpo":"421128"},"geometry":{"type":"Point","coordinates":[14.24533,50.87522]}},{"type":"Feature","properties":{"typ":"HZ","typ_p":"hasičská zbrojnice","obec":"Česká Kamenice","id_jpo":"421115"},"geometry":{"type":"Point","coordinates":[14.41272,50.80029]}},{"type":"Feature","properties":{"typ":"HZ","typ_p":"hasičská zbrojnice","obec":"Horní Podluží","id_jpo":"421127"},"geometry":{"type":"Point","coordinates":[14.55833,50.88256]}},{"type":"Feature","properties":{"typ":"HZ","typ_p":"hasičská zbrojnice","obec":"Horní Habartice","id_jpo":"421126"},"geometry":{"type":"Point","coordinates":[14.34126,50.76223]}},{"type":"Feature","properties":{"typ":"HZ","typ_p":"hasičská zbrojnice","obec":"Dobkovice","id_jpo":"421116"},"geometry":{"type":"Point","coordinates":[14.19473,50.71212]}},{"type":"Feature","properties":{"typ":"HZ","typ_p":"hasičská zbrojnice","obec":"Velký Šenov","id_jpo":"421174"},"geometry":{"type":"Point","coordinates":[14.37587,50.99191]}},{"type":"Feature","properties":{"typ":"HZ","typ_p":"hasičská zbrojnice","obec":"Mikulášovice","id_jpo":"421156"},"geometry":{"type":"Point","coordinates":[14.36436,50.9638]}},{"type":"Feature","properties":{"typ":"HZ","typ_p":"hasičská zbrojnice","obec":"Děčín","id_jpo":"421100"},"geometry":{"type":"Point","coordinates":[14.21843,50.77239]}},{"type":"Feature","properties":{"typ":"HZ","typ_p":"hasičská zbrojnice","obec":"Malečov","id_jpo":"427119"},"geometry":{"type":"Point","coordinates":[14.11943,50.63169]}},{"type":"Feature","properties":{"typ":"HZ","typ_p":"hasičská zbrojnice","obec":"Ryjice","id_jpo":"427133"},"geometry":{"type":"Point","coordinates":[14.09158,50.68816]}},{"type":"Feature","properties":{"typ":"HZ","typ_p":"hasičská zbrojnice","obec":"Velké Chvojno","id_jpo":"427151"},"geometry":{"type":"Point","coordinates":[14.03616,50.73095]}},{"type":"Feature","properties":{"typ":"HS","typ_p":"hasičská stanice","obec":"Petrovice","id_jpo":"427011"},"geometry":{"type":"Point","coordinates":[13.97868,50.77332]}},{"type":"Feature","properties":{"typ":"HZ","typ_p":"hasičská zbrojnice","obec":"Ústí nad Labem","id_jpo":"427120"},"geometry":{"type":"Point","coordinates":[14.11859,50.68154]}},{"type":"Feature","properties":{"typ":"HZ","typ_p":"hasičská zbrojnice","obec":"Libouchec","id_jpo":"427114"},"geometry":{"type":"Point","coordinates":[14.04256,50.75713]}},{"type":"Feature","properties":{"typ":"HZ","typ_p":"hasičská zbrojnice","obec":"Trmice","id_jpo":"427604"},"geometry":{"type":"Point","coordinates":[13.98509,50.64595]}},{"type":"Feature","properties":{"typ":"HZ","typ_p":"hasičská zbrojnice","obec":"Velké Březno","id_jpo":"427150"},"geometry":{"type":"Point","coordinates":[14.14079,50.6648]}},{"type":"Feature","properties":{"typ":"HZ","typ_p":"hasičská zbrojnice","obec":"Ústí nad Labem","id_jpo":"427100"},"geometry":{"type":"Point","coordinates":[14.02208,50.69124]}},{"type":"Feature","properties":{"typ":"HZ","typ_p":"hasičská zbrojnice","obec":"Petrovice","id_jpo":"427125"},"geometry":{"type":"Point","coordinates":[13.97736,50.7888]}},{"type":"Feature","properties":{"typ":"HZ","typ_p":"hasičská zbrojnice","obec":"Jimlín","id_jpo":"424139"},"geometry":{"type":"Point","coordinates":[13.74588,50.32223]}},{"type":"Feature","properties":{"typ":"HZ","typ_p":"hasičská zbrojnice","obec":"Louny","id_jpo":"424807"},"geometry":{"type":"Point","coordinates":[13.81229,50.36086]}},{"type":"Feature","properties":{"typ":"HZ","typ_p":"hasičská zbrojnice","obec":"Hrobčice","id_jpo":"426111"},"geometry":{"type":"Point","coordinates":[13.78759,50.51835]}},{"type":"Feature","properties":{"typ":"HZ","typ_p":"hasičská zbrojnice","obec":"Bílina","id_jpo":"426100"},"geometry":{"type":"Point","coordinates":[13.77536,50.55075]}},{"type":"Feature","properties":{"typ":"HS","typ_p":"hasičská stanice","obec":"Bílina","id_jpo":"426011"},"geometry":{"type":"Point","coordinates":[13.77539,50.55084]}},{"type":"Feature","properties":{"typ":"HZ","typ_p":"hasičská zbrojnice","obec":"Krupka","id_jpo":"426109"},"geometry":{"type":"Point","coordinates":[13.87512,50.67836]}},{"type":"Feature","properties":{"typ":"HZ","typ_p":"hasičská zbrojnice","obec":"Hostomice","id_jpo":"426108"},"geometry":{"type":"Point","coordinates":[13.80985,50.58701]}},{"type":"Feature","properties":{"typ":"HZ","typ_p":"hasičská zbrojnice","obec":"Teplice","id_jpo":"426812"},"geometry":{"type":"Point","coordinates":[13.80119,50.64053]}},{"type":"Feature","properties":{"typ":"HZ","typ_p":"hasičská zbrojnice","obec":"Stebno","id_jpo":"427137"},"geometry":{"type":"Point","coordinates":[14.03674,50.62302]}},{"type":"Feature","properties":{"typ":"HZ","typ_p":"hasičská zbrojnice","obec":"Liběšice","id_jpo":"423155"},"geometry":{"type":"Point","coordinates":[14.29116,50.56718]}},{"type":"Feature","properties":{"typ":"HZ","typ_p":"hasičská zbrojnice","obec":"Nové Dvory","id_jpo":"423176"},"geometry":{"type":"Point","coordinates":[14.17758,50.44832]}},{"type":"Feature","properties":{"typ":"HZ","typ_p":"hasičská zbrojnice","obec":"Lom","id_jpo":"425119"},"geometry":{"type":"Point","coordinates":[13.65526,50.59531]}},{"type":"Feature","properties":{"typ":"HZ","typ_p":"hasičská zbrojnice","obec":"Terezín","id_jpo":"423212"},"geometry":{"type":"Point","coordinates":[14.1494,50.51274]}},{"type":"Feature","properties":{"typ":"HZ","typ_p":"hasičská zbrojnice","obec":"Lukavec","id_jpo":"423166"},"geometry":{"type":"Point","coordinates":[14.08673,50.50052]}},{"type":"Feature","properties":{"typ":"HZ","typ_p":"hasičská zbrojnice","obec":"Chlumec","id_jpo":"427108"},"geometry":{"type":"Point","coordinates":[13.93765,50.69744]}},{"type":"Feature","properties":{"typ":"HZ","typ_p":"hasičská zbrojnice","obec":"Budyně nad Ohří","id_jpo":"423109"},"geometry":{"type":"Point","coordinates":[14.12912,50.40348]}},{"type":"Feature","properties":{"typ":"HZ","typ_p":"hasičská zbrojnice","obec":"Chuderov","id_jpo":"427110"},"geometry":{"type":"Point","coordinates":[14.0454,50.68904]}},{"type":"Feature","properties":{"typ":"HZ","typ_p":"hasičská zbrojnice","obec":"Děčín","id_jpo":"421104"},"geometry":{"type":"Point","coordinates":[14.21088,50.7854]}},{"type":"Feature","properties":{"typ":"HZ","typ_p":"hasičská zbrojnice","obec":"Křešice","id_jpo":"423812"},"geometry":{"type":"Point","coordinates":[14.22338,50.51632]}},{"type":"Feature","properties":{"typ":"HZ","typ_p":"hasičská zbrojnice","obec":"Křešice","id_jpo":"423151"},"geometry":{"type":"Point","coordinates":[14.21544,50.52444]}},{"type":"Feature","properties":{"typ":"HZ","typ_p":"hasičská zbrojnice","obec":"Pětipsy","id_jpo":"422143"},"geometry":{"type":"Point","coordinates":[13.35101,50.32209]}},{"type":"Feature","properties":{"typ":"HZ","typ_p":"hasičská zbrojnice","obec":"Málkov","id_jpo":"422131"},"geometry":{"type":"Point","coordinates":[13.32329,50.4487]}},{"type":"Feature","properties":{"typ":"HZ","typ_p":"hasičská zbrojnice","obec":"Domoušice","id_jpo":"424123"},"geometry":{"type":"Point","coordinates":[13.73059,50.23328]}},{"type":"Feature","properties":{"typ":"HZ","typ_p":"hasičská zbrojnice","obec":"Řehlovice","id_jpo":"427134"},"geometry":{"type":"Point","coordinates":[13.95226,50.60807]}},{"type":"Feature","properties":{"typ":"HS","typ_p":"hasičská stanice","obec":"Štětí","id_jpo":"423012"},"geometry":{"type":"Point","coordinates":[14.37533,50.45613]}},{"type":"Feature","properties":{"typ":"HZ","typ_p":"hasičská zbrojnice","obec":"Šluknov","id_jpo":"421169"},"geometry":{"type":"Point","coordinates":[14.45333,51.00461]}},{"type":"Feature","properties":{"typ":"HS","typ_p":"hasičská stanice","obec":"Šluknov","id_jpo":"421012"},"geometry":{"type":"Point","coordinates":[14.45325,51.0046]}},{"type":"Feature","properties":{"typ":"HZ","typ_p":"hasičská zbrojnice","obec":"Vědomice","id_jpo":"423224"},"geometry":{"type":"Point","coordinates":[14.2524,50.43452]}},{"type":"Feature","properties":{"typ":"HS","typ_p":"hasičská stanice","obec":"Klášterec nad Ohří","id_jpo":"422011"},"geometry":{"type":"Point","coordinates":[13.19137,50.3833]}},{"type":"Feature","properties":{"typ":"HZ","typ_p":"hasičská zbrojnice","obec":"Klášterec nad Ohří","id_jpo":"422122"},"geometry":{"type":"Point","coordinates":[13.19147,50.38329]}},{"type":"Feature","properties":{"typ":"HZ","typ_p":"hasičská zbrojnice","obec":"Raná","id_jpo":"424212"},"geometry":{"type":"Point","coordinates":[13.77917,50.41213]}},{"type":"Feature","properties":{"typ":"HZ","typ_p":"hasičská zbrojnice","obec":"Libědice","id_jpo":"422128"},"geometry":{"type":"Point","coordinates":[13.38261,50.31772]}},{"type":"Feature","properties":{"typ":"HS","typ_p":"hasičská stanice","obec":"Ústí nad Labem","id_jpo":"427010"},"geometry":{"type":"Point","coordinates":[13.99544,50.68764]}},{"type":"Feature","properties":{"typ":"HZ","typ_p":"hasičská zbrojnice","obec":"Kostomlaty pod Milešovkou","id_jpo":"426116"},"geometry":{"type":"Point","coordinates":[13.87184,50.56036]}},{"type":"Feature","properties":{"typ":"HZ","typ_p":"hasičská zbrojnice","obec":"Duchcov","id_jpo":"426814"},"geometry":{"type":"Point","coordinates":[13.74847,50.59876]}},{"type":"Feature","properties":{"typ":"HZ","typ_p":"hasičská zbrojnice","obec":"Hlinná","id_jpo":"423128"},"geometry":{"type":"Point","coordinates":[14.10742,50.5722]}},{"type":"Feature","properties":{"typ":"HZ","typ_p":"hasičská zbrojnice","obec":"Litoměřice","id_jpo":"423100"},"geometry":{"type":"Point","coordinates":[14.12216,50.53638]}},{"type":"Feature","properties":{"typ":"HZ","typ_p":"hasičská zbrojnice","obec":"Povrly","id_jpo":"427126"},"geometry":{"type":"Point","coordinates":[14.1609,50.6723]}},{"type":"Feature","properties":{"typ":"HZ","typ_p":"hasičská zbrojnice","obec":"Peruc","id_jpo":"424190"},"geometry":{"type":"Point","coordinates":[13.938,50.38173]}},{"type":"Feature","properties":{"typ":"HZ","typ_p":"hasičská zbrojnice","obec":"Vilémov","id_jpo":"421177"},"geometry":{"type":"Point","coordinates":[14.33095,50.99361]}},{"type":"Feature","properties":{"typ":"HZ","typ_p":"hasičská zbrojnice","obec":"Chotiněves","id_jpo":"423139"},"geometry":{"type":"Point","coordinates":[14.28103,50.55107]}},{"type":"Feature","properties":{"typ":"HZ","typ_p":"hasičská zbrojnice","obec":"Oleško","id_jpo":"423261"},"geometry":{"type":"Point","coordinates":[14.19661,50.48061]}},{"type":"Feature","properties":{"typ":"HZ","typ_p":"hasičská zbrojnice","obec":"Třebenice","id_jpo":"423217"},"geometry":{"type":"Point","coordinates":[13.99106,50.47743]}},{"type":"Feature","properties":{"typ":"HZ","typ_p":"hasičská zbrojnice","obec":"Světec","id_jpo":"426137"},"geometry":{"type":"Point","coordinates":[13.81298,50.57645]}},{"type":"Feature","properties":{"typ":"HZ","typ_p":"hasičská zbrojnice","obec":"Podbořany","id_jpo":"424204"},"geometry":{"type":"Point","coordinates":[13.412,50.22721]}},{"type":"Feature","properties":{"typ":"HS","typ_p":"hasičská stanice","obec":"Podbořany","id_jpo":"424012"},"geometry":{"type":"Point","coordinates":[13.412,50.2273]}},{"type":"Feature","properties":{"typ":"HZ","typ_p":"hasičská zbrojnice","obec":"Jeníkov","id_jpo":"426142"},"geometry":{"type":"Point","coordinates":[13.75559,50.63963]}},{"type":"Feature","properties":{"typ":"HZ","typ_p":"hasičská zbrojnice","obec":"Straškov-Vodochody","id_jpo":"423208"},"geometry":{"type":"Point","coordinates":[14.24996,50.36462]}},{"type":"Feature","properties":{"typ":"HS","typ_p":"hasičská stanice","obec":"Žatec","id_jpo":"424010"},"geometry":{"type":"Point","coordinates":[13.54174,50.32496]}},{"type":"Feature","properties":{"typ":"HZ","typ_p":"hasičská zbrojnice","obec":"Děčín","id_jpo":"421111"},"geometry":{"type":"Point","coordinates":[14.20071,50.75206]}},{"type":"Feature","properties":{"typ":"HZ","typ_p":"hasičská zbrojnice","obec":"Veliká Ves","id_jpo":"422155"},"geometry":{"type":"Point","coordinates":[13.34196,50.28597]}},{"type":"Feature","properties":{"typ":"HZ","typ_p":"hasičská zbrojnice","obec":"Bohušovice nad Ohří","id_jpo":"423103"},"geometry":{"type":"Point","coordinates":[14.15098,50.49393]}},{"type":"Feature","properties":{"typ":"HZ","typ_p":"hasičská zbrojnice","obec":"Peruc","id_jpo":"424191"},"geometry":{"type":"Point","coordinates":[13.91966,50.37969]}},{"type":"Feature","properties":{"typ":"HZ","typ_p":"hasičská zbrojnice","obec":"Želenice","id_jpo":"425134"},"geometry":{"type":"Point","coordinates":[13.72682,50.52712]}},{"type":"Feature","properties":{"typ":"HZ","typ_p":"hasičská zbrojnice","obec":"Droužkovice","id_jpo":"422113"},"geometry":{"type":"Point","coordinates":[13.42862,50.43087]}},{"type":"Feature","properties":{"typ":"HZ","typ_p":"hasičská zbrojnice","obec":"Bžany","id_jpo":"426119"},"geometry":{"type":"Point","coordinates":[13.86515,50.57603]}},{"type":"Feature","properties":{"typ":"HZ","typ_p":"hasičská zbrojnice","obec":"Moldava","id_jpo":"426126"},"geometry":{"type":"Point","coordinates":[13.65557,50.72044]}},{"type":"Feature","properties":{"typ":"HZ","typ_p":"hasičská zbrojnice","obec":"Chotiměř","id_jpo":"423138"},"geometry":{"type":"Point","coordinates":[14.0005,50.54733]}},{"type":"Feature","properties":{"typ":"HZ","typ_p":"hasičská zbrojnice","obec":"Čížkovice","id_jpo":"423115"},"geometry":{"type":"Point","coordinates":[14.02765,50.4848]}},{"type":"Feature","properties":{"typ":"HZ","typ_p":"hasičská zbrojnice","obec":"Most","id_jpo":"425132"},"geometry":{"type":"Point","coordinates":[13.66386,50.5108]}},{"type":"Feature","properties":{"typ":"HZ","typ_p":"hasičská zbrojnice","obec":"Mikulov","id_jpo":"426124"},"geometry":{"type":"Point","coordinates":[13.71998,50.68687]}},{"type":"Feature","properties":{"typ":"HZ","typ_p":"hasičská zbrojnice","obec":"Slavětín","id_jpo":"424223"},"geometry":{"type":"Point","coordinates":[13.90831,50.35167]}},{"type":"Feature","properties":{"typ":"HZ","typ_p":"hasičská zbrojnice","obec":"Žatec","id_jpo":"424264"},"geometry":{"type":"Point","coordinates":[13.53745,50.31989]}},{"type":"Feature","properties":{"typ":"HZ","typ_p":"hasičská zbrojnice","obec":"Osek","id_jpo":"426131"},"geometry":{"type":"Point","coordinates":[13.69782,50.62345]}},{"type":"Feature","properties":{"typ":"HZ","typ_p":"hasičská zbrojnice","obec":"Žitenice","id_jpo":"423237"},"geometry":{"type":"Point","coordinates":[14.16929,50.5619]}},{"type":"Feature","properties":{"typ":"HZ","typ_p":"hasičská zbrojnice","obec":"Polepy","id_jpo":"423185"},"geometry":{"type":"Point","coordinates":[14.26754,50.5104]}},{"type":"Feature","properties":{"typ":"HZ","typ_p":"hasičská zbrojnice","obec":"Dolní Habartice","id_jpo":"421118"},"geometry":{"type":"Point","coordinates":[14.33563,50.74803]}},{"type":"Feature","properties":{"typ":"HZ","typ_p":"hasičská zbrojnice","obec":"Cítoliby","id_jpo":"424112"},"geometry":{"type":"Point","coordinates":[13.81439,50.33159]}},{"type":"Feature","properties":{"typ":"HZ","typ_p":"hasičská zbrojnice","obec":"Horní Beřkovice","id_jpo":"423129"},"geometry":{"type":"Point","coordinates":[14.34509,50.3589]}},{"type":"Feature","properties":{"typ":"HZ","typ_p":"hasičská zbrojnice","obec":"Verneřice","id_jpo":"421175"},"geometry":{"type":"Point","coordinates":[14.30151,50.6598]}},{"type":"Feature","properties":{"typ":"HZ","typ_p":"hasičská zbrojnice","obec":"Nová Ves v Horách","id_jpo":"425126"},"geometry":{"type":"Point","coordinates":[13.47295,50.60067]}},{"type":"Feature","properties":{"typ":"HZ","typ_p":"hasičská zbrojnice","obec":"Vršovice","id_jpo":"424255"},"geometry":{"type":"Point","coordinates":[13.84183,50.36803]}},{"type":"Feature","properties":{"typ":"HS","typ_p":"hasičská stanice","obec":"Bitozeves","id_jpo":"424013"},"geometry":{"type":"Point","coordinates":[13.58509,50.37702]}},{"type":"Feature","properties":{"typ":"HZ","typ_p":"hasičská zbrojnice","obec":"Hřivice","id_jpo":"424132"},"geometry":{"type":"Point","coordinates":[13.73052,50.28852]}},{"type":"Feature","properties":{"typ":"HZ","typ_p":"hasičská zbrojnice","obec":"Žiželice","id_jpo":"424266"},"geometry":{"type":"Point","coordinates":[13.54275,50.36851]}},{"type":"Feature","properties":{"typ":"HZ","typ_p":"hasičská zbrojnice","obec":"Markvartice","id_jpo":"421153"},"geometry":{"type":"Point","coordinates":[14.35766,50.77721]}},{"type":"Feature","properties":{"typ":"HZ","typ_p":"hasičská zbrojnice","obec":"Štětí","id_jpo":"423254"},"geometry":{"type":"Point","coordinates":[14.37507,50.45583]}},{"type":"Feature","properties":{"typ":"HZ","typ_p":"hasičská zbrojnice","obec":"Libčeves","id_jpo":"424158"},"geometry":{"type":"Point","coordinates":[13.83898,50.45203]}},{"type":"Feature","properties":{"typ":"HZ","typ_p":"hasičská zbrojnice","obec":"Srbice","id_jpo":"426136"},"geometry":{"type":"Point","coordinates":[13.8693,50.65913]}},{"type":"Feature","properties":{"typ":"HZ","typ_p":"hasičská zbrojnice","obec":"Chomutov","id_jpo":"422166"},"geometry":{"type":"Point","coordinates":[13.39552,50.46738]}},{"type":"Feature","properties":{"typ":"HZ","typ_p":"hasičská zbrojnice","obec":"Ústí nad Labem","id_jpo":"427140"},"geometry":{"type":"Point","coordinates":[14.04752,50.6479]}},{"type":"Feature","properties":{"typ":"HZ","typ_p":"hasičská zbrojnice","obec":"Podsedice","id_jpo":"423241"},"geometry":{"type":"Point","coordinates":[13.92834,50.47588]}},{"type":"Feature","properties":{"typ":"HZ","typ_p":"hasičská zbrojnice","obec":"Zabrušany","id_jpo":"426139"},"geometry":{"type":"Point","coordinates":[13.78527,50.60621]}},{"type":"Feature","properties":{"typ":"HZ","typ_p":"hasičská zbrojnice","obec":"Tisá","id_jpo":"427145"},"geometry":{"type":"Point","coordinates":[14.02646,50.78684]}},{"type":"Feature","properties":{"typ":"HZ","typ_p":"hasičská zbrojnice","obec":"Chraberce","id_jpo":"424181"},"geometry":{"type":"Point","coordinates":[13.8301,50.40912]}},{"type":"Feature","properties":{"typ":"HZ","typ_p":"hasičská zbrojnice","obec":"Telnice","id_jpo":"427144"},"geometry":{"type":"Point","coordinates":[13.96348,50.72752]}},{"type":"Feature","properties":{"typ":"HZ","typ_p":"hasičská zbrojnice","obec":"Brozany nad Ohří","id_jpo":"423106"},"geometry":{"type":"Point","coordinates":[14.14614,50.45461]}},{"type":"Feature","properties":{"typ":"HZ","typ_p":"hasičská zbrojnice","obec":"Krásný Dvůr","id_jpo":"424150"},"geometry":{"type":"Point","coordinates":[13.36622,50.25262]}},{"type":"Feature","properties":{"typ":"HZ","typ_p":"hasičská zbrojnice","obec":"Martiněves","id_jpo":"423238"},"geometry":{"type":"Point","coordinates":[14.14648,50.36259]}},{"type":"Feature","properties":{"typ":"HZ","typ_p":"hasičská zbrojnice","obec":"Brodec","id_jpo":"424106"},"geometry":{"type":"Point","coordinates":[13.80133,50.29319]}},{"type":"Feature","properties":{"typ":"HZ","typ_p":"hasičská zbrojnice","obec":"Březno","id_jpo":"422107"},"geometry":{"type":"Point","coordinates":[13.42582,50.40164]}},{"type":"Feature","properties":{"typ":"HS","typ_p":"hasičská stanice","obec":"Most","id_jpo":"425010"},"geometry":{"type":"Point","coordinates":[13.63708,50.48316]}},{"type":"Feature","properties":{"typ":"HZ","typ_p":"hasičská zbrojnice","obec":"Duchcov","id_jpo":"426106"},"geometry":{"type":"Point","coordinates":[13.74804,50.60112]}},{"type":"Feature","properties":{"typ":"HS","typ_p":"hasičská stanice","obec":"Duchcov","id_jpo":"426012"},"geometry":{"type":"Point","coordinates":[13.74828,50.60112]}},{"type":"Feature","properties":{"typ":"HZ","typ_p":"hasičská zbrojnice","obec":"Varnsdorf","id_jpo":"421172"},"geometry":{"type":"Point","coordinates":[14.62945,50.90492]}},{"type":"Feature","properties":{"typ":"HS","typ_p":"hasičská stanice","obec":"Varnsdorf","id_jpo":"421011"},"geometry":{"type":"Point","coordinates":[14.62941,50.90487]}},{"type":"Feature","properties":{"typ":"HZ","typ_p":"hasičská zbrojnice","obec":"Malé Březno","id_jpo":"427118"},"geometry":{"type":"Point","coordinates":[14.17186,50.67315]}},{"type":"Feature","properties":{"typ":"HZ","typ_p":"hasičská zbrojnice","obec":"Krupka","id_jpo":"426114"},"geometry":{"type":"Point","coordinates":[13.8921,50.68548]}},{"type":"Feature","properties":{"typ":"HZ","typ_p":"hasičská zbrojnice","obec":"Skršín","id_jpo":"425130"},"geometry":{"type":"Point","coordinates":[13.7552,50.46633]}},{"type":"Feature","properties":{"typ":"HZ","typ_p":"hasičská zbrojnice","obec":"Chabařovice","id_jpo":"427109"},"geometry":{"type":"Point","coordinates":[13.93662,50.67659]}},{"type":"Feature","properties":{"typ":"HZ","typ_p":"hasičská zbrojnice","obec":"Děčín","id_jpo":"421110"},"geometry":{"type":"Point","coordinates":[14.19201,50.74394]}},{"type":"Feature","properties":{"typ":"HZ","typ_p":"hasičská zbrojnice","obec":"Černovice","id_jpo":"422109"},"geometry":{"type":"Point","coordinates":[13.35614,50.44634]}},{"type":"Feature","properties":{"typ":"HZ","typ_p":"hasičská zbrojnice","obec":"Mšené-lázně","id_jpo":"423174"},"geometry":{"type":"Point","coordinates":[14.12378,50.36238]}},{"type":"Feature","properties":{"typ":"HZ","typ_p":"hasičská zbrojnice","obec":"Jirkov","id_jpo":"422119"},"geometry":{"type":"Point","coordinates":[13.44701,50.49931]}},{"type":"Feature","properties":{"typ":"HZ","typ_p":"hasičská zbrojnice","obec":"Dolní Podluží","id_jpo":"421119"},"geometry":{"type":"Point","coordinates":[14.59217,50.87968]}},{"type":"Feature","properties":{"typ":"HZ","typ_p":"hasičská zbrojnice","obec":"Hřivice","id_jpo":"424236"},"geometry":{"type":"Point","coordinates":[13.73079,50.30314]}},{"type":"Feature","properties":{"typ":"HZ","typ_p":"hasičská zbrojnice","obec":"Tuchořice","id_jpo":"424242"},"geometry":{"type":"Point","coordinates":[13.66313,50.2853]}},{"type":"Feature","properties":{"typ":"HZ","typ_p":"hasičská zbrojnice","obec":"Litvínov","id_jpo":"425107"},"geometry":{"type":"Point","coordinates":[13.57583,50.59169]}},{"type":"Feature","properties":{"typ":"HZ","typ_p":"hasičská zbrojnice","obec":"Modlany","id_jpo":"426125"},"geometry":{"type":"Point","coordinates":[13.89776,50.65342]}},{"type":"Feature","properties":{"typ":"HZ","typ_p":"hasičská zbrojnice","obec":"Louka u Litvínova","id_jpo":"425120"},"geometry":{"type":"Point","coordinates":[13.6361,50.58931]}},{"type":"Feature","properties":{"typ":"HZ","typ_p":"hasičská zbrojnice","obec":"Kytlice","id_jpo":"421144"},"geometry":{"type":"Point","coordinates":[14.52971,50.81494]}},{"type":"Feature","properties":{"typ":"HZ","typ_p":"hasičská zbrojnice","obec":"Chudoslavice","id_jpo":"423140"},"geometry":{"type":"Point","coordinates":[14.18717,50.58297]}},{"type":"Feature","properties":{"typ":"HZ","typ_p":"hasičská zbrojnice","obec":"Veltěže","id_jpo":"424248"},"geometry":{"type":"Point","coordinates":[13.87575,50.35085]}},{"type":"Feature","properties":{"typ":"HZ","typ_p":"hasičská zbrojnice","obec":"Čížkovice","id_jpo":"423820"},"geometry":{"type":"Point","coordinates":[14.0434,50.48815]}}]}