{"type":"FeatureCollection","features":[{"type":"Feature","properties":{"kod":"LKDC","typ":"NTL-HEMS","typ_p":"vnitrostátní heliport pro leteckou záchrannou službu","upres":"HEMS, nemocnice","nocni":"N","vyska":684},"geometry":{"type":"Point","coordinates":[14.22776,50.78113]}},{"type":"Feature","properties":{"kod":"Z134","typ":"O","typ_p":"neurčeno","upres":"u hřbitova"},"geometry":{"type":"Point","coordinates":[13.41904,50.22503]}},{"type":"Feature","properties":{"kod":"Z126","typ":"O","typ_p":"neurčeno","upres":"nemocnice"},"geometry":{"type":"Point","coordinates":[13.27116,50.39118]}},{"type":"Feature","properties":{"kod":"Z125","typ":"O","typ_p":"neurčeno","upres":"ul. Průmyslová - parkoviště"},"geometry":{"type":"Point","coordinates":[13.28604,50.37323]}},{"type":"Feature","properties":{"kod":"LKCU","nazev":"Chomutov","typ":"NTL-HEMS","typ_p":"vnitrostátní heliport pro leteckou záchrannou službu","upres":"HEMS, nemocnice","nocni":"N","vyska":1099},"geometry":{"type":"Point","coordinates":[13.41191,50.45373]}},{"type":"Feature","properties":{"kod":"LKUS","nazev":"Ústí nad Labem","typ":"NTL-HEMS","typ_p":"vnitrostátní heliport pro leteckou záchrannou službu","upres":"HEMS, Masarykova nemocnice - střecha","nocni":"N","vyska":932},"geometry":{"type":"Point","coordinates":[14.02076,50.68]}},{"type":"Feature","properties":{"kod":"LKUB","nazev":"Ústí nad Labem - Bukov","typ":"NTL-HEMS","typ_p":"vnitrostátní heliport pro leteckou záchrannou službu","upres":"HEMS","nocni":"A","vyska":919},"geometry":{"type":"Point","coordinates":[14.02405,50.67751]}},{"type":"Feature","properties":{"kod":"LKLO","nazev":"Litoměřice","typ":"NTL-HEMS","typ_p":"vnitrostátní heliport pro leteckou záchrannou službu","upres":"HEMS, nemocnice","nocni":"N","vyska":617},"geometry":{"type":"Point","coordinates":[14.14619,50.54183]}},{"type":"Feature","properties":{"kod":"Z045","typ":"O","typ_p":"neurčeno","upres":"nemocnice"},"geometry":{"type":"Point","coordinates":[13.80768,50.34908]}},{"type":"Feature","properties":{"kod":"Z044","typ":"O","typ_p":"neurčeno","upres":"vojenský výcvikový prostor"},"geometry":{"type":"Point","coordinates":[14.01004,50.7675]}},{"type":"Feature","properties":{"kod":"Z122","typ":"O","typ_p":"neurčeno","upres":"nemocnice"},"geometry":{"type":"Point","coordinates":[13.53716,50.31963]}},{"type":"Feature","properties":{"kod":"Z020","typ":"O","typ_p":"neurčeno","upres":"nemocnice"},"geometry":{"type":"Point","coordinates":[13.74197,50.60969]}},{"type":"Feature","properties":{"kod":"Z042","typ":"O","typ_p":"neurčeno","upres":"elektrárna"},"geometry":{"type":"Point","coordinates":[13.78229,50.57921]}},{"type":"Feature","properties":{"kod":"Z035","typ":"O","typ_p":"neurčeno","upres":"elektrárna"},"geometry":{"type":"Point","coordinates":[13.25667,50.41598]}},{"type":"Feature","properties":{"kod":"LKMS","typ":"NTL-HEMS","typ_p":"vnitrostátní heliport pro leteckou záchrannou službu","upres":"HEMS, nemocnice","nocni":"N","vyska":992},"geometry":{"type":"Point","coordinates":[13.63067,50.50353]}}]}