{"type":"FeatureCollection","features":[{"type":"Feature","properties":{"nazev":"AHC Nemocnice Duchcov s.r.o.","typ":"nemocnice"},"geometry":{"type":"Point","coordinates":[13.74277,50.60915]}},{"type":"Feature","properties":{"nazev":"Nemocnice Roudnice nad Labem s.r.o.","typ":"nemocnice"},"geometry":{"type":"Point","coordinates":[14.24989,50.42309]}},{"type":"Feature","properties":{"nazev":"KZ, a.s., Masarykova nem. Ústí n. L., o.z.","typ":"nemocnice"},"geometry":{"type":"Point","coordinates":[14.01529,50.68103]}},{"type":"Feature","properties":{"nazev":"KZ, a.s., Masarykova nem. Ústí n. L., o.z.","typ":"nemocnice"},"geometry":{"type":"Point","coordinates":[14.01159,50.6767]}},{"type":"Feature","properties":{"nazev":"KZ, a.s., Masarykova nem. Ústí n. L., o.z.","typ":"nemocnice"},"geometry":{"type":"Point","coordinates":[14.02241,50.68127]}},{"type":"Feature","properties":{"nazev":"Nemocnice Žatec, z.ú.","typ":"nemocnice"},"geometry":{"type":"Point","coordinates":[13.53806,50.31967]}},{"type":"Feature","properties":{"nazev":"KZ, a.s., Nemocnice Teplice, o.z.","typ":"nemocnice"},"geometry":{"type":"Point","coordinates":[13.81095,50.63668]}},{"type":"Feature","properties":{"nazev":"KZ, a.s., Masarykova nem. Ústí n. L., o.z.","typ":"nemocnice"},"geometry":{"type":"Point","coordinates":[14.01998,50.67995]}},{"type":"Feature","properties":{"nazev":"Krajská zdravotní, a.s. - Nem. Litoměřice, o.z.","typ":"nemocnice"},"geometry":{"type":"Point","coordinates":[14.1434,50.5411]}},{"type":"Feature","properties":{"nazev":"KZ, a.s., Nemocnice Chomutov, o.z.","typ":"nemocnice"},"geometry":{"type":"Point","coordinates":[13.41159,50.45481]}},{"type":"Feature","properties":{"nazev":"KZ, a.s., Nemocnice Děčín, o.z.","typ":"nemocnice"},"geometry":{"type":"Point","coordinates":[14.22525,50.78142]}},{"type":"Feature","properties":{"nazev":"KZ, a.s., Nemocnice Most, o.z.","typ":"nemocnice"},"geometry":{"type":"Point","coordinates":[13.62779,50.50761]}},{"type":"Feature","properties":{"nazev":"Nemocnice Kadaň s.r.o.","typ":"nemocnice"},"geometry":{"type":"Point","coordinates":[13.27005,50.39122]}},{"type":"Feature","properties":{"nazev":"KZ, a.s., Masarykova nem. Ústí n. L., o.z., Rumb.","typ":"nemocnice"},"geometry":{"type":"Point","coordinates":[14.54759,50.94881]}}]}