{"type":"FeatureCollection","features":[{"type":"Feature","properties":{"nazev":"OOP Jirkov","typ":"OOP","typ_p":"obvodní oddělení policie"},"geometry":{"type":"Point","coordinates":[13.44414,50.49415]}},{"type":"Feature","properties":{"nazev":"OOP Březno","typ":"OOP","typ_p":"obvodní oddělení policie"},"geometry":{"type":"Point","coordinates":[13.42255,50.40276]}},{"type":"Feature","properties":{"nazev":"OOP Obrnice","typ":"OOP","typ_p":"obvodní oddělení policie"},"geometry":{"type":"Point","coordinates":[13.69661,50.50314]}},{"type":"Feature","properties":{"nazev":"ÚO Louny","typ":"UO","typ_p":"územní odbor"},"geometry":{"type":"Point","coordinates":[13.80912,50.35846]}},{"type":"Feature","properties":{"nazev":"OOP Louny","typ":"OOP","typ_p":"obvodní oddělení policie"},"geometry":{"type":"Point","coordinates":[13.80903,50.35845]}},{"type":"Feature","properties":{"nazev":"DI Most","typ":"DI","typ_p":"dopravní inspektorát"},"geometry":{"type":"Point","coordinates":[13.65664,50.50667]}},{"type":"Feature","properties":{"nazev":"OOP Most","typ":"OOP","typ_p":"obvodní oddělení policie"},"geometry":{"type":"Point","coordinates":[13.65671,50.50664]}},{"type":"Feature","properties":{"nazev":"ÚO Most","typ":"UO","typ_p":"územní odbor"},"geometry":{"type":"Point","coordinates":[13.65678,50.50661]}},{"type":"Feature","properties":{"nazev":"OOP Most-Zahradní","typ":"OOP","typ_p":"obvodní oddělení policie"},"geometry":{"type":"Point","coordinates":[13.65198,50.49645]}},{"type":"Feature","properties":{"nazev":"PS Nová Ves v Horách","typ":"PS","typ_p":"policejní stanice"},"geometry":{"type":"Point","coordinates":[13.47576,50.59859]}},{"type":"Feature","properties":{"nazev":"PS Meziboří","typ":"PS","typ_p":"policejní stanice"},"geometry":{"type":"Point","coordinates":[13.60654,50.62023]}},{"type":"Feature","properties":{"nazev":"OOP Kadaň","typ":"OOP","typ_p":"obvodní oddělení policie"},"geometry":{"type":"Point","coordinates":[13.26356,50.38198]}},{"type":"Feature","properties":{"nazev":"OOP Vejprty","typ":"OOP","typ_p":"obvodní oddělení policie"},"geometry":{"type":"Point","coordinates":[13.02743,50.49246]}},{"type":"Feature","properties":{"nazev":"OOP Velký Šenov","typ":"OOP","typ_p":"obvodní oddělení policie"},"geometry":{"type":"Point","coordinates":[14.38328,50.99449]}},{"type":"Feature","properties":{"nazev":"OOP Podbořany","typ":"OOP","typ_p":"obvodní oddělení policie"},"geometry":{"type":"Point","coordinates":[13.40669,50.22868]}},{"type":"Feature","properties":{"nazev":"DI Teplice","typ":"DI","typ_p":"dopravní inspektorát"},"geometry":{"type":"Point","coordinates":[13.82905,50.6454]}},{"type":"Feature","properties":{"nazev":"OOP Teplice-Trnovany","typ":"OOP","typ_p":"obvodní oddělení policie"},"geometry":{"type":"Point","coordinates":[13.84465,50.6572]}},{"type":"Feature","properties":{"nazev":"OOP Krupka","typ":"OOP","typ_p":"obvodní oddělení policie"},"geometry":{"type":"Point","coordinates":[13.88458,50.68612]}},{"type":"Feature","properties":{"nazev":"OOP Teplice-Prosetice","typ":"OOP","typ_p":"obvodní oddělení policie"},"geometry":{"type":"Point","coordinates":[13.84248,50.63484]}},{"type":"Feature","properties":{"nazev":"OOP Litvínov-Hamr","typ":"OOP","typ_p":"obvodní oddělení policie"},"geometry":{"type":"Point","coordinates":[13.56799,50.5932]}},{"type":"Feature","properties":{"nazev":"OOP Teplice-město","typ":"OOP","typ_p":"obvodní oddělení policie"},"geometry":{"type":"Point","coordinates":[13.83259,50.64402]}},{"type":"Feature","properties":{"nazev":"OOP Duchcov","typ":"OOP","typ_p":"obvodní oddělení policie"},"geometry":{"type":"Point","coordinates":[13.74667,50.60843]}},{"type":"Feature","properties":{"nazev":"OOP Dubí","typ":"OOP","typ_p":"obvodní oddělení policie"},"geometry":{"type":"Point","coordinates":[13.79178,50.6755]}},{"type":"Feature","properties":{"nazev":"ÚO Teplice","typ":"UO","typ_p":"územní odbor"},"geometry":{"type":"Point","coordinates":[13.83823,50.65011]}},{"type":"Feature","properties":{"nazev":"OOP Benešov nad Ploučnicí","typ":"OOP","typ_p":"obvodní oddělení policie"},"geometry":{"type":"Point","coordinates":[14.30525,50.7386]}},{"type":"Feature","properties":{"nazev":"OOP Rumburk","typ":"OOP","typ_p":"obvodní oddělení policie"},"geometry":{"type":"Point","coordinates":[14.54892,50.95602]}},{"type":"Feature","properties":{"nazev":"OOP Chlumec","typ":"OOP","typ_p":"obvodní oddělení policie"},"geometry":{"type":"Point","coordinates":[13.93773,50.6995]}},{"type":"Feature","properties":{"nazev":"OOP Štětí","typ":"OOP","typ_p":"obvodní oddělení policie"},"geometry":{"type":"Point","coordinates":[14.38038,50.45368]}},{"type":"Feature","properties":{"nazev":"OOP Lovosice","typ":"OOP","typ_p":"obvodní oddělení policie"},"geometry":{"type":"Point","coordinates":[14.05681,50.51136]}},{"type":"Feature","properties":{"nazev":"OOP Krásná Lípa","typ":"OOP","typ_p":"obvodní oddělení policie"},"geometry":{"type":"Point","coordinates":[14.50122,50.91508]}},{"type":"Feature","properties":{"nazev":"OOP Varnsdorf","typ":"OOP","typ_p":"obvodní oddělení policie"},"geometry":{"type":"Point","coordinates":[14.61976,50.91926]}},{"type":"Feature","properties":{"nazev":"PS Hřensko","typ":"PS","typ_p":"policejní stanice"},"geometry":{"type":"Point","coordinates":[14.24679,50.87542]}},{"type":"Feature","properties":{"nazev":"ÚO Děčín","typ":"UO","typ_p":"územní odbor"},"geometry":{"type":"Point","coordinates":[14.21591,50.78255]}},{"type":"Feature","properties":{"nazev":"OOP Děčín-město","typ":"OOP","typ_p":"obvodní oddělení policie"},"geometry":{"type":"Point","coordinates":[14.21582,50.78255]}},{"type":"Feature","properties":{"nazev":"DI Děčín","typ":"DI","typ_p":"dopravní inspektorát"},"geometry":{"type":"Point","coordinates":[14.19924,50.77483]}},{"type":"Feature","properties":{"nazev":"DI Ústí nad Labem","typ":"DI","typ_p":"dopravní inspektorát"},"geometry":{"type":"Point","coordinates":[14.03606,50.66193]}},{"type":"Feature","properties":{"nazev":"Poříční oddělení","typ":"PO","typ_p":"poříční oddělení"},"geometry":{"type":"Point","coordinates":[14.07781,50.61747]}},{"type":"Feature","properties":{"nazev":"OOP Ústí nad Labem-Všebořice","typ":"OOP","typ_p":"obvodní oddělení policie"},"geometry":{"type":"Point","coordinates":[14.00469,50.68053]}},{"type":"Feature","properties":{"nazev":"OOP Ústí nad Labem-Neštěmice","typ":"OOP","typ_p":"obvodní oddělení policie"},"geometry":{"type":"Point","coordinates":[14.11328,50.68153]}},{"type":"Feature","properties":{"nazev":"ÚO Ústí nad Labem","typ":"UO","typ_p":"územní odbor"},"geometry":{"type":"Point","coordinates":[14.03822,50.66077]}},{"type":"Feature","properties":{"nazev":"OOP Ústí nad Labem-Střekov","typ":"OOP","typ_p":"obvodní oddělení policie"},"geometry":{"type":"Point","coordinates":[14.06577,50.65409]}},{"type":"Feature","properties":{"nazev":"PS Libouchec","typ":"PS","typ_p":"policejní stanice"},"geometry":{"type":"Point","coordinates":[14.03994,50.7594]}},{"type":"Feature","properties":{"nazev":"DO Řehlovice","typ":"DO","typ_p":"dálniční oddělení"},"geometry":{"type":"Point","coordinates":[13.9541,50.61372]}},{"type":"Feature","properties":{"nazev":"OOP Trmice","typ":"OOP","typ_p":"obvodní oddělení policie"},"geometry":{"type":"Point","coordinates":[14.00035,50.64195]}},{"type":"Feature","properties":{"nazev":"OOP Česká Kamenice","typ":"OOP","typ_p":"obvodní oddělení policie"},"geometry":{"type":"Point","coordinates":[14.42321,50.8006]}},{"type":"Feature","properties":{"nazev":"OOP Klášterec nad Ohří","typ":"OOP","typ_p":"obvodní oddělení policie"},"geometry":{"type":"Point","coordinates":[13.18262,50.39237]}},{"type":"Feature","properties":{"nazev":"OOP Žatec","typ":"OOP","typ_p":"obvodní oddělení policie"},"geometry":{"type":"Point","coordinates":[13.54559,50.33066]}},{"type":"Feature","properties":{"nazev":"OOP Bílina","typ":"OOP","typ_p":"obvodní oddělení policie"},"geometry":{"type":"Point","coordinates":[13.78402,50.55716]}},{"type":"Feature","properties":{"nazev":"DI Louny","typ":"DI","typ_p":"dopravní inspektorát"},"geometry":{"type":"Point","coordinates":[13.78608,50.35819]}},{"type":"Feature","properties":{"nazev":"DO Postoloprty","typ":"DO","typ_p":"dálniční oddělení"},"geometry":{"type":"Point","coordinates":[13.58631,50.3764]}},{"type":"Feature","properties":{"nazev":"OOP Šluknov","typ":"OOP","typ_p":"obvodní oddělení policie"},"geometry":{"type":"Point","coordinates":[14.45756,51.00184]}},{"type":"Feature","properties":{"nazev":"PS Úštěk","typ":"PS","typ_p":"policejní stanice"},"geometry":{"type":"Point","coordinates":[14.34304,50.58487]}},{"type":"Feature","properties":{"nazev":"OOP Děčín-Podmokly","typ":"OOP","typ_p":"obvodní oddělení policie"},"geometry":{"type":"Point","coordinates":[14.19978,50.77473]}},{"type":"Feature","properties":{"nazev":"KŘP ÚLK","typ":"KRP","typ_p":"krajské ředitelství policie"},"geometry":{"type":"Point","coordinates":[14.03614,50.66005]}},{"type":"Feature","properties":{"nazev":"OOP Roudnice nad Labem","typ":"OOP","typ_p":"obvodní oddělení policie"},"geometry":{"type":"Point","coordinates":[14.26162,50.42337]}},{"type":"Feature","properties":{"nazev":"OOP Litvínov","typ":"OOP","typ_p":"obvodní oddělení policie"},"geometry":{"type":"Point","coordinates":[13.61373,50.59735]}},{"type":"Feature","properties":{"nazev":"OOP Chomutov-město","typ":"OOP","typ_p":"obvodní oddělení policie"},"geometry":{"type":"Point","coordinates":[13.41615,50.45703]}},{"type":"Feature","properties":{"nazev":"DI Chomutov","typ":"DI","typ_p":"dopravní inspektorát"},"geometry":{"type":"Point","coordinates":[13.4162,50.45707]}},{"type":"Feature","properties":{"nazev":"OOP Ústí nad Labem","typ":"OOP","typ_p":"obvodní oddělení policie"},"geometry":{"type":"Point","coordinates":[14.03227,50.66492]}},{"type":"Feature","properties":{"nazev":"OOP Litoměřice","typ":"OOP","typ_p":"obvodní oddělení policie"},"geometry":{"type":"Point","coordinates":[14.1256,50.53526]}},{"type":"Feature","properties":{"nazev":"PS Lom","typ":"PS","typ_p":"policejní stanice"},"geometry":{"type":"Point","coordinates":[13.65518,50.59538]}},{"type":"Feature","properties":{"nazev":"PS Radonice","typ":"PS","typ_p":"policejní stanice"},"geometry":{"type":"Point","coordinates":[13.2853,50.29856]}},{"type":"Feature","properties":{"nazev":"PS Radovesice","typ":"PS","typ_p":"policejní stanice"},"geometry":{"type":"Point","coordinates":[14.06942,50.40989]}},{"type":"Feature","properties":{"nazev":"ÚO Chomutov","typ":"UO","typ_p":"územní odbor"},"geometry":{"type":"Point","coordinates":[13.4206,50.45794]}},{"type":"Feature","properties":{"nazev":"OOP Chomutov-venkov","typ":"OOP","typ_p":"obvodní oddělení policie"},"geometry":{"type":"Point","coordinates":[13.42055,50.4579]}},{"type":"Feature","properties":{"nazev":"ÚO Litoměřice","typ":"UO","typ_p":"územní odbor"},"geometry":{"type":"Point","coordinates":[14.13192,50.53879]}},{"type":"Feature","properties":{"nazev":"DI Litoměřice","typ":"DI","typ_p":"dopravní inspektorát"},"geometry":{"type":"Point","coordinates":[14.13189,50.53875]}},{"type":"Feature","properties":{"nazev":"PS Terezín","typ":"PS","typ_p":"policejní stanice"},"geometry":{"type":"Point","coordinates":[14.14922,50.51155]}}]}