{"type":"FeatureCollection","features":[{"type":"Feature","properties":{"fid_zbg":"473068917","plocha_ha":0.49},"geometry":{"type":"Point","coordinates":[14.616635,50.904222]}},{"type":"Feature","properties":{"fid_zbg":"481895194","plocha_ha":1.39},"geometry":{"type":"Point","coordinates":[13.544755,50.529556]}},{"type":"Feature","properties":{"fid_zbg":"459304216","plocha_ha":0.28},"geometry":{"type":"Point","coordinates":[14.292132,50.854229]}},{"type":"Feature","properties":{"fid_zbg":"480604827","plocha_ha":0.58},"geometry":{"type":"Point","coordinates":[14.244095,50.77589]}},{"type":"Feature","properties":{"fid_zbg":"473064225","plocha_ha":0.6},"geometry":{"type":"Point","coordinates":[14.390852,50.987799]}},{"type":"Feature","properties":{"fid_zbg":"473632436","plocha_ha":0.69},"geometry":{"type":"Point","coordinates":[13.807235,50.581447]}},{"type":"Feature","properties":{"fid_zbg":"473632488","plocha_ha":0.79},"geometry":{"type":"Point","coordinates":[13.848122,50.630437]}},{"type":"Feature","properties":{"fid_zbg":"471235875","plocha_ha":0.4},"geometry":{"type":"Point","coordinates":[13.620622,50.59575]}},{"type":"Feature","properties":{"fid_zbg":"446162901","plocha_ha":0.17},"geometry":{"type":"Point","coordinates":[13.353989,50.382111]}},{"type":"Feature","properties":{"fid_zbg":"473364789","plocha_ha":0.95},"geometry":{"type":"Point","coordinates":[14.200654,50.702837]}},{"type":"Feature","properties":{"fid_zbg":"473632746","kv":400,"napeti":"400 kV / 220 kV","plocha_ha":6.81},"geometry":{"type":"Point","coordinates":[13.801377,50.583099]}},{"type":"Feature","properties":{"fid_zbg":"469487871","plocha_ha":0.08},"geometry":{"type":"Point","coordinates":[13.723101,50.547908]}},{"type":"Feature","properties":{"fid_zbg":"469588078","plocha_ha":0.43},"geometry":{"type":"Point","coordinates":[14.448128,50.796723]}},{"type":"Feature","properties":{"fid_zbg":"473352271","plocha_ha":0.16},"geometry":{"type":"Point","coordinates":[14.046704,50.63746]}},{"type":"Feature","properties":{"fid_zbg":"473358087","plocha_ha":0.38},"geometry":{"type":"Point","coordinates":[13.981875,50.645641]}},{"type":"Feature","properties":{"fid_zbg":"473635096","plocha_ha":0.46},"geometry":{"type":"Point","coordinates":[13.881843,50.66144]}},{"type":"Feature","properties":{"fid_zbg":"474424681","plocha_ha":0.48},"geometry":{"type":"Point","coordinates":[13.243903,50.398863]}},{"type":"Feature","properties":{"fid_zbg":"474768782","plocha_ha":0.27},"geometry":{"type":"Point","coordinates":[13.717005,50.593651]}},{"type":"Feature","properties":{"fid_zbg":"474768786","plocha_ha":0.06},"geometry":{"type":"Point","coordinates":[13.754021,50.557967]}},{"type":"Feature","properties":{"fid_zbg":"474768820","plocha_ha":0.06},"geometry":{"type":"Point","coordinates":[13.75771,50.562185]}},{"type":"Feature","properties":{"fid_zbg":"474768880","plocha_ha":0.1},"geometry":{"type":"Point","coordinates":[13.713863,50.588395]}},{"type":"Feature","properties":{"fid_zbg":"474990652","plocha_ha":0.48},"geometry":{"type":"Point","coordinates":[14.03187,50.686478]}},{"type":"Feature","properties":{"fid_zbg":"469487263","plocha_ha":0.08},"geometry":{"type":"Point","coordinates":[13.747415,50.590061]}},{"type":"Feature","properties":{"fid_zbg":"474768790","plocha_ha":0.06},"geometry":{"type":"Point","coordinates":[13.70118,50.591758]}},{"type":"Feature","properties":{"fid_zbg":"478268477","plocha_ha":0.72},"geometry":{"type":"Point","coordinates":[13.825352,50.353171]}},{"type":"Feature","properties":{"fid_zbg":"481889666","plocha_ha":0.15},"geometry":{"type":"Point","coordinates":[13.494169,50.50224]}},{"type":"Feature","properties":{"fid_zbg":"481895170","plocha_ha":0.08},"geometry":{"type":"Point","coordinates":[13.59111,50.473986]}},{"type":"Feature","properties":{"fid_zbg":"481895174","plocha_ha":0.07},"geometry":{"type":"Point","coordinates":[13.583901,50.472625]}},{"type":"Feature","properties":{"fid_zbg":"481889196","plocha_ha":0.2},"geometry":{"type":"Point","coordinates":[13.544287,50.531891]}},{"type":"Feature","properties":{"fid_zbg":"481889420","plocha_ha":0.07},"geometry":{"type":"Point","coordinates":[13.584389,50.47688]}},{"type":"Feature","properties":{"fid_zbg":"481929936","plocha_ha":0.63},"geometry":{"type":"Point","coordinates":[13.544385,50.345488]}},{"type":"Feature","properties":{"fid_zbg":"480613941","plocha_ha":1.66},"geometry":{"type":"Point","coordinates":[13.334313,50.390049]}},{"type":"Feature","properties":{"fid_zbg":"477503946","plocha_ha":1.47},"geometry":{"type":"Point","coordinates":[14.250979,50.403701]}},{"type":"Feature","properties":{"fid_zbg":"478387908","plocha_ha":0.07},"geometry":{"type":"Point","coordinates":[13.253597,50.377452]}},{"type":"Feature","properties":{"fid_zbg":"478498220","plocha_ha":0.02},"geometry":{"type":"Point","coordinates":[13.357636,50.373429]}},{"type":"Feature","properties":{"fid_zbg":"478502832","plocha_ha":0.15},"geometry":{"type":"Point","coordinates":[13.604204,50.312369]}},{"type":"Feature","properties":{"fid_zbg":"478508454","plocha_ha":0.17},"geometry":{"type":"Point","coordinates":[13.445721,50.368945]}},{"type":"Feature","properties":{"fid_zbg":"479592292","plocha_ha":1.24},"geometry":{"type":"Point","coordinates":[14.542371,50.937724]}},{"type":"Feature","properties":{"fid_zbg":"480065847","plocha_ha":0.55},"geometry":{"type":"Point","coordinates":[14.092519,50.673007]}},{"type":"Feature","properties":{"fid_zbg":"480612291","plocha_ha":1.13},"geometry":{"type":"Point","coordinates":[13.411379,50.394165]}},{"type":"Feature","properties":{"fid_zbg":"480612315","plocha_ha":0.11},"geometry":{"type":"Point","coordinates":[13.355398,50.3887]}},{"type":"Feature","properties":{"fid_zbg":"480612319","plocha_ha":0.18},"geometry":{"type":"Point","coordinates":[13.338987,50.393016]}},{"type":"Feature","properties":{"fid_zbg":"480612593","plocha_ha":0.03},"geometry":{"type":"Point","coordinates":[13.335362,50.393898]}},{"type":"Feature","properties":{"fid_zbg":"480617843","plocha_ha":0.08},"geometry":{"type":"Point","coordinates":[13.336697,50.393312]}},{"type":"Feature","properties":{"fid_zbg":"481160793","plocha_ha":0.22},"geometry":{"type":"Point","coordinates":[13.250296,50.407176]}},{"type":"Feature","properties":{"fid_zbg":"481162511","plocha_ha":2.31},"geometry":{"type":"Point","coordinates":[13.235318,50.399034]}},{"type":"Feature","properties":{"fid_zbg":"481163519","plocha_ha":0.12},"geometry":{"type":"Point","coordinates":[13.107533,50.425749]}},{"type":"Feature","properties":{"fid_zbg":"481164529","plocha_ha":0.44},"geometry":{"type":"Point","coordinates":[13.106725,50.426159]}},{"type":"Feature","properties":{"fid_zbg":"481164943","plocha_ha":0.07},"geometry":{"type":"Point","coordinates":[13.314884,50.436214]}},{"type":"Feature","properties":{"fid_zbg":"481889498","plocha_ha":0.19},"geometry":{"type":"Point","coordinates":[13.580302,50.488513]}},{"type":"Feature","properties":{"fid_zbg":"481889638","plocha_ha":0.12},"geometry":{"type":"Point","coordinates":[13.489954,50.49937]}},{"type":"Feature","properties":{"fid_zbg":"481890198","plocha_ha":0.05},"geometry":{"type":"Point","coordinates":[13.542403,50.53331]}},{"type":"Feature","properties":{"fid_zbg":"481890468","plocha_ha":0.09},"geometry":{"type":"Point","coordinates":[13.52964,50.525926]}},{"type":"Feature","properties":{"fid_zbg":"481891464","plocha_ha":1.17},"geometry":{"type":"Point","coordinates":[13.625331,50.543566]}},{"type":"Feature","properties":{"fid_zbg":"481892804","plocha_ha":0.26},"geometry":{"type":"Point","coordinates":[13.549039,50.539941]}},{"type":"Feature","properties":{"fid_zbg":"481894876","plocha_ha":0.85},"geometry":{"type":"Point","coordinates":[13.595592,50.422596]}},{"type":"Feature","properties":{"fid_zbg":"481896742","plocha_ha":0.98},"geometry":{"type":"Point","coordinates":[13.627334,50.456638]}},{"type":"Feature","properties":{"fid_zbg":"481898578","plocha_ha":0.08},"geometry":{"type":"Point","coordinates":[13.584085,50.477789]}},{"type":"Feature","properties":{"fid_zbg":"481898622","plocha_ha":1.59},"geometry":{"type":"Point","coordinates":[13.420713,50.450138]}},{"type":"Feature","properties":{"fid_zbg":"481899570","plocha_ha":0.8},"geometry":{"type":"Point","coordinates":[13.675682,50.502734]}},{"type":"Feature","properties":{"fid_zbg":"481930128","plocha_ha":1.02},"geometry":{"type":"Point","coordinates":[13.574417,50.380806]}},{"type":"Feature","properties":{"fid_zbg":"17672288476332032","plocha_ha":0.45},"geometry":{"type":"Point","coordinates":[13.384289,50.432931]}},{"type":"Feature","properties":{"fid_zbg":"480614013","plocha_ha":1.13},"geometry":{"type":"Point","coordinates":[13.336313,50.44542]}},{"type":"Feature","properties":{"fid_zbg":"478499572","plocha_ha":0.69},"geometry":{"type":"Point","coordinates":[13.392482,50.222305]}},{"type":"Feature","properties":{"fid_zbg":"481857986","plocha_ha":0.74},"geometry":{"type":"Point","coordinates":[13.808713,50.660214]}},{"type":"Feature","properties":{"fid_zbg":"481889040","plocha_ha":0.09},"geometry":{"type":"Point","coordinates":[13.577225,50.472629]}},{"type":"Feature","properties":{"fid_zbg":"481898874","plocha_ha":0.46},"geometry":{"type":"Point","coordinates":[13.45075,50.485586]}},{"type":"Feature","properties":{"fid_zbg":"481893988","kv":400,"napeti":"400 kV / 220 kV","plocha_ha":20.5},"geometry":{"type":"Point","coordinates":[13.695456,50.39601]}},{"type":"Feature","properties":{"fid_zbg":"482267350","plocha_ha":1.07},"geometry":{"type":"Point","coordinates":[14.112491,50.546082]}},{"type":"Feature","properties":{"fid_zbg":"481901102","plocha_ha":1.94},"geometry":{"type":"Point","coordinates":[13.434479,50.455556]}},{"type":"Feature","properties":{"fid_zbg":"473360693","plocha_ha":0.99},"geometry":{"type":"Point","coordinates":[14.039352,50.562497]}},{"type":"Feature","properties":{"fid_zbg":"478500960","kv":400,"napeti":"400 kV / 220 kV","plocha_ha":29.38},"geometry":{"type":"Point","coordinates":[13.326955,50.346482]}},{"type":"Feature","properties":{"fid_zbg":"478505098","plocha_ha":0.26},"geometry":{"type":"Point","coordinates":[13.595975,50.340939]}},{"type":"Feature","properties":{"fid_zbg":"33351803764473856","plocha_ha":0.12},"geometry":{"type":"Point","coordinates":[13.782433,50.575802]}},{"type":"Feature","properties":{"fid_zbg":"474768704","plocha_ha":1.18},"geometry":{"type":"Point","coordinates":[13.772024,50.565901]}},{"type":"Feature","properties":{"fid_zbg":"458052742","plocha_ha":0.63},"geometry":{"type":"Point","coordinates":[14.136382,50.52233]}},{"type":"Feature","properties":{"fid_zbg":"470382657","plocha_ha":1.11},"geometry":{"type":"Point","coordinates":[14.175644,50.76117]}},{"type":"Feature","properties":{"fid_zbg":"25215320511741952","plocha_ha":0.71},"geometry":{"type":"Point","coordinates":[13.221708,50.398776]}},{"type":"Feature","properties":{"fid_zbg":"474424565","kv":400,"napeti":"400 kV","plocha_ha":4.87},"geometry":{"type":"Point","coordinates":[13.242344,50.401968]}},{"type":"Feature","properties":{"fid_zbg":"444820706","plocha_ha":0.75},"geometry":{"type":"Point","coordinates":[14.048469,50.415742]}},{"type":"Feature","properties":{"fid_zbg":"481896080","plocha_ha":0.07},"geometry":{"type":"Point","coordinates":[13.579096,50.489802]}},{"type":"Feature","properties":{"fid_zbg":"473364461","plocha_ha":5.56},"geometry":{"type":"Point","coordinates":[13.985665,50.635089]}},{"type":"Feature","properties":{"fid_zbg":"481890886","plocha_ha":0.27},"geometry":{"type":"Point","coordinates":[13.618139,50.514879]}},{"type":"Feature","properties":{"fid_zbg":"473627730","plocha_ha":0.22},"geometry":{"type":"Point","coordinates":[13.773338,50.640725]}}]}