{"type":"FeatureCollection","features":[{"type":"Feature","properties":{"kv":110,"napeti":"110 kV"},"geometry":{"type":"MultiLineString","coordinates":[[[13.10696,50.42613],[13.11261,50.41949],[13.11788,50.41594],[13.13559,50.40808],[13.13891,50.39205],[13.14595,50.38485]],[[13.10751,50.37382],[13.1132,50.37444],[13.11791,50.3743],[13.11959,50.37514],[13.13074,50.37636],[13.14595,50.38485]],[[13.19807,50.39974],[13.18506,50.39718],[13.14815,50.3861],[13.14595,50.38485]],[[13.19807,50.39974],[13.20138,50.40031],[13.20394,50.40083],[13.20677,50.39872]],[[13.20677,50.39872],[13.20398,50.4009],[13.19807,50.39974]],[[13.20677,50.39872],[13.20402,50.40097],[13.2013,50.40046],[13.19807,50.39974]],[[13.23514,50.39924],[13.23494,50.39952],[13.23427,50.40003],[13.23006,50.39997],[13.21507,50.39493],[13.21119,50.39522],[13.20677,50.39872]],[[13.2224,50.41617],[13.22508,50.4175],[13.22702,50.41954],[13.22919,50.422]],[[13.22919,50.422],[13.22498,50.41755],[13.2224,50.41617]],[[13.22919,50.422],[13.22488,50.41761],[13.2224,50.41617]],[[13.2224,50.41617],[13.20267,50.40576],[13.20233,50.40265],[13.21139,50.39549],[13.21518,50.39522],[13.22997,50.4002],[13.23475,50.40086]],[[13.23126,50.42416],[13.22919,50.422]],[[13.23636,50.42607],[13.2315,50.4249],[13.23126,50.42416]],[[13.23126,50.42416],[13.2314,50.42494],[13.23636,50.42607]],[[13.23636,50.42607],[13.23128,50.42499],[13.23126,50.42416]],[[13.23484,50.40088],[13.23424,50.40051]],[[13.23424,50.40051],[13.23475,50.40086]],[[13.23424,50.40051],[13.23518,50.39955],[13.23535,50.39927]],[[13.23475,50.40086],[13.23484,50.40088]],[[13.23475,50.40086],[13.23548,50.40138],[13.23784,50.40276]],[[13.23484,50.40088],[13.23542,50.40096],[13.2356,50.40057]],[[13.23784,50.40276],[13.23484,50.40088]],[[13.23518,50.39886],[13.23531,50.39814],[13.23292,50.39247],[13.22702,50.38259],[13.22602,50.3718],[13.22241,50.36438],[13.22701,50.35776],[13.22666,50.35486],[13.24205,50.35187],[13.26054,50.33363],[13.26478,50.32146],[13.26839,50.29613],[13.30887,50.28331],[13.35442,50.25506],[13.36205,50.25624],[13.36596,50.25578],[13.37678,50.25821],[13.37784,50.25819]],[[13.23546,50.39887],[13.23552,50.39825]],[[13.23552,50.39825],[13.2364,50.39791],[13.23826,50.39784]],[[13.23552,50.39825],[13.23646,50.39797],[13.23826,50.39784]],[[13.2356,50.40057],[13.23604,50.40085]],[[13.23598,50.39934],[13.23569,50.3996],[13.23532,50.40042],[13.2356,50.40057]],[[13.2356,50.40057],[13.23613,50.39936]],[[13.23647,50.39821],[13.23575,50.39836],[13.23563,50.3989]],[[13.23604,50.40085],[13.24361,50.4056]],[[13.23604,50.40085],[13.23573,50.40135],[13.23784,50.40276]],[[13.23628,50.40047],[13.23604,50.40085]],[[13.23647,50.39821],[13.23623,50.39894]],[[13.24396,50.40525],[13.23628,50.40047]],[[13.23628,50.40047],[13.23612,50.40035],[13.23636,50.39939]],[[13.2366,50.39942],[13.23639,50.40028],[13.23628,50.40047]],[[13.42016,50.45002],[13.41931,50.44982],[13.40951,50.4501],[13.35455,50.45334],[13.33491,50.44837],[13.32002,50.44404],[13.27697,50.43137],[13.26889,50.43097],[13.26365,50.429],[13.25892,50.42881],[13.25105,50.42934],[13.23636,50.42607]],[[13.23646,50.39895],[13.23665,50.39831],[13.24292,50.39793]],[[13.23826,50.39784],[13.23653,50.39803],[13.23647,50.39821]],[[13.24277,50.39776],[13.23647,50.39821]],[[13.23784,50.40276],[13.24437,50.40682],[13.2422,50.4143],[13.25647,50.42145],[13.25717,50.42136],[13.25732,50.42012]],[[13.23826,50.39784],[13.24357,50.39745],[13.24929,50.38653],[13.24644,50.38304],[13.25084,50.37802],[13.25446,50.37672],[13.26624,50.37088],[13.26936,50.37034],[13.27547,50.36462],[13.28717,50.35823],[13.29309,50.35683],[13.30226,50.35864],[13.31269,50.3611],[13.3182,50.36417],[13.32644,50.37762]],[[13.24277,50.39776],[13.24292,50.39793]],[[13.24277,50.39776],[13.25316,50.39705],[13.25992,50.39856],[13.26544,50.39806],[13.26905,50.39717],[13.28033,50.39013],[13.29433,50.37575],[13.32303,50.37626],[13.32499,50.37759]],[[13.24292,50.39793],[13.24366,50.39875]],[[13.24292,50.39793],[13.24308,50.39792]],[[13.24308,50.39792],[13.24378,50.39869]],[[13.33638,50.44583],[13.33639,50.44604],[13.3356,50.44602],[13.33352,50.44185],[13.32998,50.4424],[13.32309,50.4445],[13.3098,50.44053],[13.29124,50.43517],[13.27795,50.43122],[13.27899,50.428],[13.275,50.42358],[13.27451,50.42225],[13.26594,50.41495],[13.25804,50.40852],[13.2574,50.40412],[13.26383,50.40349],[13.2642,50.4022],[13.25904,50.3995],[13.2499,50.3975],[13.24308,50.39792]],[[13.24361,50.4056],[13.24574,50.40684],[13.24747,50.40801]],[[13.24361,50.4056],[13.24747,50.40801]],[[13.24747,50.40801],[13.24559,50.40693],[13.24361,50.4056]],[[13.24396,50.40525],[13.24586,50.40635],[13.24803,50.40781]],[[13.24803,50.40781],[13.24396,50.40525]],[[13.24803,50.40781],[13.24571,50.40645],[13.24396,50.40525]],[[13.24747,50.40801],[13.24591,50.40987],[13.2488,50.41283],[13.24975,50.41314]],[[13.24803,50.40781],[13.24632,50.40987],[13.24869,50.4123],[13.24945,50.41211]],[[13.24975,50.41314],[13.25009,50.41271]],[[13.24975,50.41314],[13.25029,50.41292]],[[13.2505,50.41312],[13.24975,50.41314]],[[13.32644,50.37762],[13.32499,50.37759]],[[13.32499,50.37759],[13.32721,50.38414],[13.32993,50.38733],[13.33341,50.39048]],[[13.32811,50.37898],[13.32738,50.37916],[13.32644,50.37762]],[[13.3348,50.37954],[13.33238,50.37845],[13.32811,50.37898]],[[13.32811,50.37898],[13.33076,50.37893],[13.3328,50.37913],[13.3348,50.37954]],[[13.33767,50.38063],[13.33744,50.38013],[13.3348,50.37954]],[[13.37784,50.25819],[13.37787,50.25654],[13.3874,50.23247],[13.39226,50.22342],[13.39245,50.2225]],[[13.37784,50.25819],[13.39237,50.2579],[13.41188,50.26096],[13.42099,50.26723],[13.45947,50.2784],[13.50445,50.282],[13.50621,50.28395],[13.52647,50.28744],[13.58618,50.28703],[13.60239,50.29012],[13.61577,50.30715],[13.6177,50.30695]],[[13.42038,50.45038],[13.42115,50.45075],[13.42317,50.45013],[13.4223,50.4491],[13.42454,50.44735],[13.42639,50.44757],[13.42936,50.44711],[13.44019,50.43322],[13.45912,50.42635]],[[13.47312,50.42126],[13.47262,50.4207],[13.47423,50.40976],[13.46575,50.39674],[13.46831,50.39422],[13.45333,50.38074],[13.44647,50.36991],[13.44591,50.36922]],[[13.45059,50.48554],[13.44942,50.48523],[13.44949,50.48351],[13.44762,50.48281],[13.44484,50.48006],[13.45492,50.46625],[13.45499,50.45471],[13.46026,50.44856],[13.47223,50.45113]],[[13.47353,50.44977],[13.47641,50.44812],[13.45912,50.42635]],[[13.45912,50.42635],[13.47312,50.42126]],[[13.47223,50.45113],[13.47301,50.45114],[13.47327,50.45061],[13.47353,50.44977]],[[13.47223,50.45113],[13.4726,50.45105],[13.47287,50.45054],[13.47353,50.44977]],[[13.47312,50.42126],[13.47562,50.42036],[13.53629,50.41892],[13.56665,50.41265],[13.58897,50.4097],[13.59175,50.41078],[13.59635,50.4189],[13.59753,50.42209],[13.59563,50.42241]],[[13.57502,50.38105],[13.57494,50.38133],[13.57393,50.38274],[13.56913,50.38374],[13.56642,50.38306],[13.56638,50.37665],[13.5644,50.37186],[13.56199,50.35863],[13.5552,50.35547],[13.55357,50.3504],[13.5476,50.34599],[13.54488,50.34551]],[[13.5449,50.34545],[13.54548,50.34544],[13.54768,50.34578],[13.55236,50.34921],[13.55774,50.34922],[13.56429,50.34535],[13.56607,50.343],[13.58415,50.34673],[13.60037,50.34057],[13.60103,50.33868],[13.60665,50.3362],[13.60932,50.32855],[13.60741,50.31962],[13.61035,50.31462],[13.61147,50.31107],[13.61791,50.30781],[13.6177,50.30695]],[[13.57057,50.51183],[13.56836,50.51259],[13.56706,50.51691],[13.56542,50.51914],[13.56391,50.52074],[13.55739,50.52372],[13.54964,50.52844],[13.5479,50.52883],[13.54544,50.5291],[13.54522,50.52939]],[[13.56973,50.52083],[13.57097,50.52006],[13.57284,50.51843],[13.571,50.51542],[13.57416,50.51362],[13.57505,50.51123],[13.57655,50.51043],[13.58605,50.50817],[13.58652,50.50811],[13.5901,50.50774],[13.59103,50.5116],[13.59264,50.51261],[13.59342,50.51464],[13.59478,50.51645],[13.59732,50.51703],[13.60176,50.51824],[13.60522,50.51851],[13.61376,50.51736],[13.61714,50.51493],[13.61807,50.51513]],[[13.56992,50.52187],[13.5691,50.52163],[13.568,50.51863],[13.57028,50.51269]],[[13.57013,50.52158],[13.56945,50.52132],[13.56835,50.51865],[13.57056,50.51293],[13.5723,50.51295],[13.57352,50.51153],[13.57503,50.51101],[13.57637,50.51022],[13.58604,50.50749],[13.58818,50.50595],[13.58886,50.50468],[13.59284,50.50102],[13.60206,50.4956],[13.60354,50.49321],[13.60627,50.48372],[13.6042,50.48031],[13.60206,50.47869],[13.60125,50.47613],[13.60177,50.47457],[13.61262,50.468],[13.63493,50.46434],[13.66146,50.45623],[13.69194,50.44509],[13.70631,50.43827]],[[13.61348,50.56943],[13.61302,50.57037],[13.61144,50.57215],[13.60602,50.57366],[13.60413,50.5733],[13.60167,50.573],[13.59762,50.57224],[13.5948,50.5712],[13.59417,50.56982],[13.59388,50.5679],[13.59102,50.56588],[13.59104,50.56337],[13.59188,50.56104],[13.59316,50.55894],[13.59352,50.55671],[13.5934,50.55538],[13.59232,50.54891],[13.58963,50.54724],[13.58809,50.54725],[13.58747,50.54429],[13.58775,50.54314],[13.5872,50.54198],[13.58617,50.5402],[13.5848,50.53841],[13.58266,50.53703],[13.5804,50.53529],[13.57897,50.53351],[13.5748,50.53134],[13.56454,50.53054],[13.56255,50.52648],[13.55674,50.52561],[13.55711,50.52454],[13.55875,50.5234],[13.56425,50.52089],[13.56608,50.51886],[13.56739,50.51704],[13.56864,50.5128],[13.57028,50.51269]],[[13.57057,50.51183],[13.57028,50.51269]],[[13.57028,50.51269],[13.57215,50.51272],[13.57339,50.51129],[13.575,50.51079],[13.57614,50.51009],[13.58592,50.50714],[13.58747,50.50614],[13.58818,50.50491],[13.59257,50.50087],[13.60176,50.49547],[13.60319,50.49315],[13.60591,50.48374],[13.60389,50.48043],[13.60178,50.47891],[13.60069,50.47591],[13.6005,50.47412],[13.61191,50.46721],[13.63441,50.46349],[13.63821,50.46237],[13.66081,50.45543],[13.69117,50.44434],[13.7049,50.43781],[13.70539,50.41288],[13.69281,50.39813],[13.69411,50.39649],[13.69433,50.39632]],[[13.57057,50.51183],[13.57252,50.51132],[13.57496,50.51055],[13.57609,50.50987],[13.5857,50.50692],[13.58759,50.50494],[13.58823,50.50447],[13.59229,50.50073],[13.60145,50.49534],[13.60285,50.49308],[13.60554,50.48376],[13.60357,50.48054],[13.60148,50.47908],[13.60033,50.47591],[13.60024,50.47396],[13.61174,50.467],[13.63079,50.46385]],[[13.57517,50.38104],[13.57526,50.38126],[13.57649,50.38177],[13.58347,50.38012],[13.5973,50.38136],[13.63498,50.39985],[13.64559,50.4015],[13.64598,50.40209],[13.66851,50.39917],[13.66927,50.39935]],[[13.5957,50.42257],[13.59788,50.42221],[13.59661,50.41884],[13.59199,50.41074],[13.5921,50.4093],[13.61908,50.40578],[13.66927,50.39935]],[[13.62373,50.59582],[13.61906,50.59264],[13.60667,50.58795],[13.60403,50.58676],[13.60166,50.58477],[13.60168,50.58326],[13.60266,50.58153],[13.60302,50.57711],[13.60339,50.57549],[13.6045,50.57475],[13.6073,50.57423],[13.60932,50.57312],[13.61277,50.57223],[13.61435,50.57002],[13.61374,50.56943]],[[13.69275,50.39556],[13.69551,50.39224],[13.70291,50.383],[13.73134,50.36507],[13.73193,50.36446],[13.73474,50.36272],[13.73695,50.36154],[13.74306,50.35769],[13.74938,50.3422],[13.74263,50.34109],[13.72573,50.33497],[13.65291,50.30348],[13.6177,50.30695]],[[13.62373,50.59582],[13.62322,50.59618],[13.62143,50.59567],[13.62097,50.59575]],[[13.62373,50.59582],[13.64773,50.60146],[13.65861,50.60363],[13.66161,50.60312],[13.67313,50.59977],[13.68477,50.59964],[13.7028,50.61047],[13.70542,50.6114],[13.70806,50.61298],[13.7118,50.61376],[13.71413,50.61391],[13.71688,50.61519],[13.72269,50.61678],[13.72477,50.61772],[13.73458,50.62342],[13.74,50.62393],[13.74717,50.62153],[13.75096,50.62042],[13.767,50.61521],[13.78609,50.61405],[13.79307,50.6111],[13.80047,50.59647],[13.79942,50.59351],[13.79574,50.5898],[13.79463,50.58696],[13.79795,50.58531],[13.80032,50.58463],[13.80005,50.58409]],[[13.62791,50.45685],[13.62865,50.45719],[13.62906,50.45856],[13.63043,50.46263]],[[13.63079,50.46385],[13.63078,50.46349],[13.63043,50.46263]],[[13.63043,50.46263],[13.63079,50.46385]],[[13.63079,50.46385],[13.63056,50.46354],[13.63043,50.46263]],[[13.63079,50.46385],[13.63432,50.46328],[13.66065,50.45523],[13.69097,50.44414],[13.70456,50.4377],[13.70503,50.41295],[13.6923,50.39801],[13.69301,50.39613],[13.6932,50.39593]],[[13.66927,50.39935],[13.66985,50.39948],[13.67785,50.39845],[13.67827,50.39819]],[[13.66927,50.39935],[13.67827,50.39819]],[[13.70631,50.43827],[13.70852,50.43976],[13.70479,50.46212],[13.69828,50.47431],[13.69561,50.47562],[13.68015,50.48349],[13.67036,50.50017],[13.67251,50.50095],[13.6742,50.50312],[13.67518,50.50293]],[[13.67827,50.39819],[13.67887,50.39783],[13.68891,50.39649],[13.69175,50.39542]],[[13.67827,50.39819],[13.68876,50.39686],[13.69178,50.39573],[13.69198,50.3955]],[[13.6923,50.3956],[13.69204,50.39614],[13.69154,50.39801],[13.69223,50.40022],[13.69567,50.40694],[13.69948,50.41418],[13.68963,50.42575],[13.68293,50.42829],[13.68176,50.42747]],[[13.69363,50.39583],[13.69488,50.39415],[13.69996,50.38977],[13.74417,50.3794],[13.75405,50.37586],[13.76292,50.36542],[13.78207,50.35657],[13.79891,50.34483],[13.81269,50.33858]],[[13.69428,50.39441],[13.7033,50.38318],[13.73105,50.36569],[13.73215,50.36456],[13.73509,50.36274],[13.73692,50.36182],[13.74334,50.35779],[13.74598,50.35416],[13.74631,50.35092],[13.74984,50.34229],[13.75039,50.33974],[13.75315,50.33299],[13.76594,50.3035],[13.7939,50.27471],[13.79523,50.27342],[13.79595,50.27261],[13.80737,50.26083]],[[13.70631,50.43827],[13.7068,50.41276],[13.69449,50.39833],[13.6946,50.3964]],[[13.79626,50.5714],[13.7934,50.57058],[13.79052,50.56957],[13.78769,50.56963],[13.78404,50.56922],[13.78142,50.56734],[13.78111,50.56653],[13.78117,50.56542],[13.78345,50.56346],[13.78789,50.55982],[13.79016,50.55827],[13.80086,50.54867],[13.80428,50.54191],[13.8064,50.53663],[13.81691,50.52402],[13.81007,50.51959],[13.78723,50.49182],[13.78558,50.48966],[13.78345,50.48722],[13.77982,50.4828],[13.75112,50.45561],[13.73324,50.44134],[13.72885,50.43987],[13.72703,50.43638],[13.7233,50.43339],[13.707,50.41263],[13.69478,50.39829],[13.69477,50.39693],[13.69494,50.3965]],[[13.80334,50.58346],[13.80368,50.58385],[13.80555,50.58342],[13.80392,50.57959],[13.79065,50.57701],[13.78867,50.57499],[13.7845,50.5723],[13.7827,50.57047],[13.77645,50.56831],[13.77272,50.5656],[13.77195,50.56574]],[[13.78844,50.5751],[13.78437,50.57238],[13.78252,50.57062],[13.77628,50.56845],[13.77301,50.56607],[13.77214,50.56616]],[[13.77343,50.64004],[13.77331,50.64061]],[[13.77583,50.64031],[13.77343,50.64004]],[[13.7735,50.64064],[13.77343,50.64004]],[[13.80578,50.59877],[13.80557,50.59933],[13.8072,50.6013],[13.81069,50.60575],[13.79423,50.61152],[13.78529,50.62661],[13.78457,50.62838],[13.78046,50.63192],[13.7778,50.64053],[13.77583,50.64031]],[[13.81085,50.6602],[13.8143,50.65913],[13.81411,50.65618],[13.81414,50.65534],[13.81395,50.65368],[13.81183,50.65156],[13.79938,50.64691],[13.78957,50.64854],[13.7756,50.64308],[13.77583,50.64031]],[[13.78114,50.57575],[13.78158,50.57568],[13.78207,50.57572]],[[13.78207,50.57572],[13.78169,50.5759],[13.78123,50.57598]],[[13.78448,50.57818],[13.78288,50.57613],[13.78134,50.57627]],[[13.78448,50.57818],[13.78279,50.57624],[13.78143,50.5765]],[[13.78409,50.57821],[13.78298,50.57688],[13.78174,50.57702]],[[13.78176,50.57711],[13.78292,50.57695],[13.78409,50.57821]],[[13.7911,50.58271],[13.78764,50.58099],[13.78325,50.57554],[13.78207,50.57572]],[[13.78217,50.57692],[13.78304,50.5768],[13.78409,50.57821]],[[13.7913,50.58337],[13.79082,50.58346],[13.78679,50.58148],[13.78409,50.57821]],[[13.79127,50.5831],[13.79082,50.58316],[13.78705,50.58133],[13.78448,50.57818]],[[13.78844,50.5751],[13.78808,50.57484]],[[13.80361,50.58336],[13.8038,50.58364],[13.80518,50.58333],[13.80371,50.57968],[13.79037,50.57716],[13.78844,50.5751]],[[13.7911,50.58271],[13.79148,50.5828],[13.7915,50.58306]],[[13.79139,50.58308],[13.79138,50.58284],[13.7911,50.58271]],[[13.79127,50.5831],[13.79124,50.58288],[13.7911,50.58271]],[[13.7913,50.58337],[13.79127,50.5831]],[[13.79139,50.58308],[13.79127,50.5831]],[[13.79269,50.58383],[13.79134,50.58376],[13.7913,50.58337]],[[13.79141,50.58335],[13.7913,50.58337]],[[13.79141,50.58335],[13.79139,50.58308]],[[13.7915,50.58306],[13.79139,50.58308]],[[13.79269,50.58383],[13.79143,50.5837],[13.79141,50.58335]],[[13.79151,50.58334],[13.79141,50.58335]],[[13.7915,50.58306],[13.79151,50.58334]],[[13.80102,50.58262],[13.80058,50.58177],[13.7915,50.58306]],[[13.79151,50.58334],[13.79153,50.58363],[13.79269,50.58383]],[[13.80077,50.58268],[13.80044,50.582],[13.79151,50.58334]],[[13.79894,50.58341],[13.79504,50.58409],[13.79269,50.58383]],[[13.79626,50.5714],[13.79546,50.57201]],[[13.8059,50.58368],[13.80427,50.57937],[13.80005,50.57626],[13.79974,50.57483],[13.79626,50.5714]],[[13.80578,50.59877],[13.80356,50.59708],[13.80154,50.59304],[13.8019,50.59157],[13.79914,50.58799],[13.7977,50.58571],[13.80162,50.58483],[13.80112,50.58386]],[[13.806,50.59819],[13.80396,50.59692],[13.80189,50.59304],[13.80228,50.59126],[13.79941,50.5876],[13.79851,50.58601],[13.80244,50.58484],[13.80183,50.58368]],[[13.80608,50.59798],[13.8042,50.59683],[13.80219,50.59302],[13.80254,50.59113],[13.79972,50.58749],[13.79886,50.5861],[13.80315,50.58486],[13.80232,50.5836]],[[13.80347,50.58503],[13.8032,50.58448],[13.80244,50.58357]],[[13.8029,50.58354],[13.80337,50.58425],[13.8059,50.58368]],[[13.80347,50.58503],[13.7992,50.58619],[13.79999,50.58736],[13.80279,50.59099],[13.80247,50.593],[13.80445,50.59672],[13.80621,50.59764],[13.80608,50.59798]],[[13.80347,50.58503],[13.80602,50.58403],[13.8059,50.58368]],[[13.85094,50.61267],[13.81677,50.60573],[13.81361,50.60474],[13.80578,50.59877]],[[13.806,50.59819],[13.80578,50.59877]],[[13.8059,50.58368],[13.80657,50.58353],[13.80612,50.58192],[13.80686,50.58115],[13.80804,50.58016]],[[13.8859,50.62107],[13.86081,50.61446],[13.81855,50.60591],[13.806,50.59819]],[[13.80608,50.59798],[13.806,50.59819]],[[13.92796,50.61442],[13.92098,50.6133],[13.88709,50.62119],[13.86114,50.61434],[13.81873,50.60576],[13.80608,50.59798]],[[13.81085,50.6602],[13.80978,50.66052],[13.8084,50.66042]],[[13.80844,50.6603],[13.80931,50.66015],[13.8098,50.66034],[13.81074,50.66001],[13.81085,50.6602]],[[13.81085,50.6602],[13.81251,50.66303],[13.8153,50.67063],[13.82409,50.67218],[13.83109,50.67443],[13.83669,50.67404],[13.84757,50.67259],[13.86211,50.66815],[13.86258,50.6609],[13.86382,50.66036],[13.86274,50.6588],[13.86928,50.65368],[13.87463,50.65753],[13.88142,50.66098],[13.88167,50.6615]],[[13.81269,50.33858],[13.82811,50.34908],[13.82542,50.35294]],[[13.81269,50.33858],[13.81768,50.33631],[13.82704,50.32828],[13.86664,50.31718],[13.90396,50.29681],[13.9407,50.28439]],[[13.85094,50.61267],[13.84266,50.62866],[13.84729,50.631],[13.84802,50.63073]],[[13.88589,50.62162],[13.8825,50.62174],[13.86048,50.61458],[13.85094,50.61267]],[[13.88195,50.66146],[13.88177,50.66099],[13.8748,50.65746],[13.86944,50.65356],[13.87643,50.64813],[13.88005,50.63887],[13.88844,50.63041],[13.88589,50.62358],[13.88589,50.62162]],[[13.8859,50.62107],[13.88589,50.62162]],[[13.98524,50.63474],[13.98656,50.62688],[13.98362,50.62399],[13.98055,50.62329],[13.92101,50.61368],[13.88715,50.62157],[13.88589,50.62162]],[[13.92796,50.61442],[13.92786,50.6146],[13.92101,50.61349],[13.8871,50.62139],[13.8859,50.62107]],[[13.98686,50.6266],[13.98575,50.62543],[13.98377,50.62381],[13.98082,50.62315],[13.96719,50.62095],[13.96415,50.61968],[13.95064,50.61803],[13.92796,50.61442]],[[13.92796,50.61442],[13.93212,50.6064],[13.9553,50.59511],[13.99341,50.60467],[14.00063,50.60604]],[[13.94095,50.28431],[13.94217,50.2839]],[[13.97376,50.67818],[13.96907,50.68111],[13.95908,50.68548],[13.95663,50.68648],[13.9566,50.68783]],[[13.97376,50.67818],[13.97759,50.6806],[13.98359,50.68175],[13.99095,50.68972],[13.99324,50.68967],[13.99778,50.68912],[13.99942,50.68974],[13.99985,50.69402],[13.99434,50.69834],[13.99469,50.70104],[13.99815,50.70238],[14.0033,50.70075],[14.01162,50.70021],[14.02316,50.70026],[14.02556,50.69779],[14.02784,50.69151],[14.02874,50.68943],[14.03021,50.68904]],[[13.97376,50.67818],[13.98778,50.66944],[13.98733,50.66802]],[[13.97944,50.64481],[13.98149,50.64524],[13.98121,50.6456]],[[13.97953,50.64692],[13.97944,50.64481]],[[13.98308,50.63572],[13.98144,50.63803],[13.98025,50.64308],[13.97944,50.64481]],[[13.98733,50.66802],[13.98691,50.66262],[13.98433,50.66193],[13.98239,50.66108],[13.97895,50.65986],[13.97614,50.65766],[13.97859,50.64838],[13.97953,50.64692]],[[13.97953,50.64692],[13.98121,50.6456]],[[13.98121,50.6456],[13.98321,50.64476],[13.98459,50.64404],[13.98506,50.64338],[13.98665,50.6424],[13.98722,50.64156],[13.98817,50.63812],[13.98797,50.63642],[13.98793,50.63488]],[[13.98488,50.63509],[13.98308,50.63572]],[[13.98308,50.63572],[13.98474,50.63523]],[[13.98474,50.63523],[13.98488,50.63509]],[[13.98474,50.63523],[13.98566,50.63497]],[[13.98488,50.63509],[13.98524,50.63474]],[[13.9855,50.63488],[13.98488,50.63509]],[[13.9855,50.63488],[13.98524,50.63474]],[[13.98566,50.63497],[13.9855,50.63488]],[[13.98571,50.63481],[13.9855,50.63488]],[[13.98566,50.63497],[13.98598,50.63506],[13.98571,50.63481]],[[13.98566,50.63497],[13.98592,50.63518]],[[13.98571,50.63481],[13.98553,50.63465],[13.98686,50.6266]],[[13.98691,50.62806],[13.98614,50.63272],[13.98575,50.63457],[13.98619,50.63464],[13.98571,50.63481]],[[13.98682,50.63455],[13.98757,50.63477],[13.98767,50.63455],[13.98792,50.63461],[13.98793,50.63488]],[[13.98686,50.6266],[13.98697,50.6262]],[[13.98691,50.62806],[13.98708,50.62664],[13.98697,50.6262]],[[13.98697,50.6262],[13.98732,50.6266],[13.98706,50.62731],[13.98691,50.62806]],[[13.98697,50.6262],[13.99611,50.61087],[14.00063,50.60604]],[[13.98733,50.66802],[13.98941,50.66841],[13.99166,50.66707],[13.99407,50.66633],[13.99826,50.6661],[14.00106,50.66601],[14.00733,50.66711],[14.00841,50.66513],[14.0083,50.66454]],[[13.98793,50.63488],[13.99328,50.6365],[13.99873,50.63746],[14.0018,50.6365],[14.00688,50.63491],[14.02627,50.6229]],[[14.00063,50.60604],[14.01732,50.60917],[14.02041,50.61399],[14.02627,50.6229]],[[14.00063,50.60604],[14.02319,50.5819],[14.02406,50.56133]],[[14.02406,50.56133],[14.03826,50.56235],[14.0389,50.56229]],[[14.05515,50.49733],[14.04393,50.50452],[14.03741,50.50979],[14.03175,50.51588],[14.03671,50.54258],[14.02406,50.56133]],[[14.13857,50.61913],[14.11432,50.61576],[14.09194,50.61552],[14.08532,50.61552],[14.08337,50.61525],[14.0791,50.61538],[14.07016,50.61578],[14.06326,50.61644],[14.02824,50.62166],[14.02627,50.6229]],[[14.03021,50.68904],[14.03807,50.68986],[14.04503,50.69252],[14.06503,50.69382],[14.11548,50.72896],[14.12447,50.73443],[14.12884,50.73716],[14.13484,50.73903],[14.14036,50.73877],[14.15203,50.74035]],[[14.03145,50.68664],[14.03061,50.6867],[14.02922,50.68894],[14.03021,50.68904]],[[14.04676,50.49197],[14.0457,50.49127]],[[14.04676,50.49197],[14.05515,50.49733]],[[14.04676,50.49197],[14.04937,50.4904],[14.05015,50.48423],[14.03327,50.4776],[14.03496,50.46732],[14.03153,50.46503],[14.03356,50.45688],[14.03408,50.43523],[14.03253,50.43042],[14.03768,50.42694],[14.04357,50.41637],[14.04742,50.41616],[14.04812,50.41601]],[[14.05515,50.49733],[14.05763,50.49573],[14.08531,50.48947],[14.10504,50.48551],[14.1228,50.47825]],[[14.09915,50.55107],[14.09589,50.55225],[14.09329,50.5499],[14.092,50.5444],[14.09012,50.53853],[14.08914,50.53703],[14.08429,50.53568],[14.08308,50.5345],[14.08168,50.53326],[14.08029,50.53162],[14.07751,50.53147],[14.07611,50.52954],[14.07495,50.52829],[14.07715,50.52612],[14.07815,50.52414],[14.07851,50.52271],[14.07872,50.51981],[14.08046,50.51543]],[[14.09246,50.67342],[14.09204,50.67385],[14.09362,50.67477],[14.095,50.67573],[14.09577,50.67922],[14.09806,50.68036],[14.10232,50.68131],[14.10513,50.68181],[14.11361,50.68359],[14.11613,50.68311],[14.11774,50.68269],[14.12951,50.68029],[14.13268,50.67639],[14.13091,50.6742],[14.13029,50.67171],[14.1314,50.66952],[14.13317,50.66722],[14.12459,50.64995],[14.12177,50.64553],[14.1209,50.64256],[14.1293,50.63904],[14.13268,50.63245],[14.13529,50.63122],[14.1365,50.62843],[14.14046,50.62402],[14.13857,50.61913]],[[14.09815,50.68013],[14.10239,50.68112],[14.11353,50.68345],[14.11605,50.68303],[14.11769,50.68258],[14.12729,50.68061]],[[14.09915,50.55107],[14.09619,50.55252],[14.09912,50.55515],[14.10054,50.55625],[14.10126,50.55707],[14.10817,50.56386],[14.11658,50.56589],[14.12302,50.56469],[14.12691,50.5629],[14.13585,50.56263],[14.14545,50.56356],[14.1584,50.56462],[14.16451,50.56398],[14.17079,50.56498],[14.17309,50.56558],[14.17608,50.57707],[14.17833,50.58685],[14.18045,50.5947],[14.18079,50.59663],[14.18701,50.60617],[14.18838,50.60813],[14.19514,50.61743],[14.19739,50.62033],[14.20263,50.62123],[14.20527,50.62793]],[[14.1118,50.547],[14.10416,50.54908],[14.1018,50.55011],[14.09915,50.55107]],[[14.11238,50.54648],[14.1118,50.547]],[[14.1118,50.547],[14.11267,50.54659]],[[14.13635,50.52216],[14.13596,50.52119],[14.1308,50.4949],[14.1228,50.47825]],[[14.1228,50.47825],[14.16104,50.46262],[14.23605,50.42508],[14.24493,50.41166],[14.24903,50.40585]],[[14.20527,50.62793],[14.19449,50.62665],[14.16786,50.62326],[14.13857,50.61913]],[[14.17538,50.76068],[14.17129,50.75592],[14.16698,50.75366],[14.16372,50.75049],[14.16195,50.74857],[14.15203,50.74035]],[[14.15203,50.74035],[14.16846,50.73194],[14.1777,50.72255],[14.18418,50.71062],[14.18538,50.70871],[14.18635,50.70666],[14.18706,50.70535],[14.19404,50.70304],[14.1994,50.70236],[14.20107,50.70267]],[[14.17538,50.76068],[14.17554,50.76108]],[[14.17569,50.76104],[14.17555,50.76051],[14.17538,50.76068]],[[14.17587,50.76054],[14.1762,50.76091]],[[14.17587,50.76054],[14.17602,50.76096]],[[14.21687,50.76149],[14.20696,50.74771],[14.20463,50.74679],[14.19691,50.74921],[14.19459,50.74965],[14.18115,50.75263],[14.17895,50.75342],[14.17622,50.75363],[14.17443,50.7543],[14.17518,50.75846],[14.17587,50.76054]],[[14.20527,50.62793],[14.21447,50.62902],[14.24979,50.62954],[14.28648,50.62951],[14.32066,50.63173],[14.35976,50.6322],[14.36283,50.63293]],[[14.20689,50.766],[14.2073,50.76582],[14.21181,50.76307],[14.21349,50.76194],[14.21687,50.76149]],[[14.24923,50.77337],[14.24069,50.76823],[14.23184,50.76529],[14.21897,50.76443],[14.21838,50.76381],[14.21799,50.76307],[14.21687,50.76149]],[[14.24923,50.77337],[14.24736,50.77486],[14.24444,50.77548],[14.24401,50.77605]],[[14.24903,50.40585],[14.29901,50.41036],[14.36603,50.41281],[14.37149,50.4136]],[[14.24903,50.40585],[14.25028,50.40406],[14.2512,50.40407]],[[14.3992,50.78987],[14.38966,50.78989],[14.38146,50.7912],[14.37266,50.79159],[14.37106,50.7915],[14.3697,50.79174],[14.34342,50.79292],[14.34,50.79441],[14.31805,50.79626],[14.31148,50.7966],[14.28065,50.79845],[14.2642,50.79149],[14.25394,50.77623],[14.24923,50.77337]],[[14.3642,50.63325],[14.3638,50.63316]],[[14.36712,50.35212],[14.36728,50.35233]],[[14.41196,50.42171],[14.38802,50.44751],[14.38529,50.46074],[14.38506,50.46156],[14.38483,50.46299],[14.38459,50.46344],[14.38389,50.46386]],[[14.3992,50.78987],[14.39961,50.8055],[14.41215,50.82606],[14.41547,50.8314],[14.41886,50.83704],[14.44624,50.85604],[14.47048,50.86369],[14.47576,50.86991],[14.4888,50.87199],[14.51821,50.89806],[14.51938,50.90045],[14.52652,50.91444],[14.52814,50.91637],[14.53109,50.92605],[14.54057,50.93287],[14.54197,50.93727],[14.54125,50.93766],[14.539,50.93955],[14.53657,50.94107],[14.53635,50.94772],[14.5347,50.95069],[14.5214,50.9584],[14.51234,50.97311],[14.50852,50.97845],[14.50396,50.98351],[14.50223,50.98495],[14.49428,50.99085],[14.48208,50.99277],[14.45941,50.99461],[14.44706,50.9936],[14.4436,50.9934],[14.40734,50.99061],[14.39603,50.99159],[14.39181,50.98805],[14.39083,50.98784]],[[14.3992,50.78987],[14.39911,50.78644],[14.40531,50.77167],[14.40761,50.76633],[14.40853,50.76234]],[[14.40853,50.76234],[14.40876,50.7624],[14.40961,50.76412],[14.41477,50.77375],[14.44266,50.78769],[14.44345,50.78886],[14.44589,50.7928],[14.44763,50.79608]],[[14.40853,50.76234],[14.41856,50.74813]],[[14.44763,50.79608],[14.44804,50.79644]],[[14.44793,50.79648],[14.44763,50.79608]],[[14.61675,50.90427],[14.61307,50.90326],[14.60407,50.90557],[14.59143,50.91048],[14.56613,50.91515],[14.56394,50.91612],[14.5583,50.91924],[14.55044,50.932],[14.54218,50.93716]]]}},{"type":"Feature","properties":{"kv":220,"napeti":"220 kV"},"geometry":{"type":"MultiLineString","coordinates":[[[13.32154,50.34427],[13.31402,50.34187],[13.31234,50.34113]],[[13.32216,50.34569],[13.32154,50.34427]],[[13.32192,50.34575],[13.32154,50.34427]],[[13.32226,50.34836],[13.32208,50.34713]],[[13.32291,50.34969],[13.32226,50.34836]],[[13.32226,50.34836],[13.32232,50.34708]],[[13.32526,50.35184],[13.3248,50.35016],[13.32291,50.34969]],[[13.32526,50.35184],[13.3246,50.35043],[13.32291,50.34969]],[[13.50156,50.40912],[13.43876,50.38299],[13.4032,50.38018],[13.38455,50.36976],[13.38015,50.36878],[13.36271,50.37091],[13.33144,50.35961],[13.32913,50.35974],[13.32774,50.35874],[13.32526,50.35184]],[[13.4352,50.45539],[13.43588,50.45539]],[[13.43539,50.4557],[13.43588,50.45539]],[[13.43588,50.45539],[13.43693,50.45622],[13.44179,50.45669],[13.44672,50.45674],[13.45185,50.45697],[13.45464,50.45441],[13.45991,50.44811],[13.47714,50.45183],[13.49991,50.43351],[13.50311,50.41306]],[[13.50156,50.40912],[13.5093,50.41231]],[[13.50311,50.41306],[13.5051,50.41067],[13.50156,50.40912]],[[13.5093,50.41231],[13.5057,50.41095],[13.50311,50.41306]],[[13.5093,50.41231],[13.52482,50.41877],[13.53607,50.41849],[13.56841,50.41182],[13.64553,50.40191],[13.67209,50.3903],[13.68992,50.38842],[13.69571,50.39377]],[[13.69506,50.39476],[13.69571,50.39377]],[[13.69571,50.39377],[13.69551,50.39491]],[[14.00867,50.34654],[13.89262,50.38217],[13.83148,50.39019],[13.79708,50.39353],[13.76153,50.38491],[13.75409,50.38703],[13.71973,50.38632],[13.70093,50.39063],[13.69632,50.39463],[13.69598,50.39505]],[[13.70758,50.41254],[13.70602,50.39589],[13.69935,50.39391],[13.69692,50.39476],[13.69657,50.39523]],[[13.80162,50.58136],[13.80177,50.58154],[13.80235,50.58229],[13.80183,50.58142],[13.80162,50.58136]],[[13.80162,50.58136],[13.80171,50.58154],[13.80212,50.58233],[13.80141,50.58129],[13.80162,50.58136]],[[13.80162,50.58136],[13.80999,50.57924],[13.81473,50.57971],[13.82167,50.58192],[13.82476,50.58301],[13.83169,50.5838],[13.85744,50.5778]],[[14.36272,50.6326],[14.36222,50.63248],[14.32065,50.63199],[14.28646,50.62976],[14.2464,50.62982],[14.23598,50.62965],[14.17049,50.63298],[14.12774,50.62991],[14.09587,50.61583],[14.06407,50.61656],[14.03852,50.61266],[13.99361,50.60424],[13.92287,50.58652],[13.88732,50.57428],[13.86772,50.57898],[13.86243,50.57843],[13.85744,50.5778]],[[13.85744,50.5778],[13.85993,50.57542],[13.86293,50.5727],[13.86114,50.56838]]]}},{"type":"Feature","properties":{"kv":400,"napeti":"400 kV"},"geometry":{"type":"MultiLineString","coordinates":[[[13.20945,50.52986],[13.21018,50.52903],[13.21764,50.52212],[13.23154,50.50954],[13.24104,50.50445],[13.24485,50.49753],[13.24428,50.49184],[13.23,50.46639],[13.22157,50.44925],[13.22143,50.44127],[13.22477,50.43331],[13.23059,50.42635],[13.23092,50.42466],[13.22652,50.42006],[13.21858,50.41734],[13.21577,50.41481],[13.20065,50.40649],[13.2001,50.40181],[13.21066,50.39348],[13.21765,50.39363],[13.22396,50.38645],[13.22497,50.37553],[13.22927,50.37384],[13.24716,50.375],[13.25337,50.37246],[13.26688,50.36854],[13.26976,50.36724],[13.27193,50.36579]],[[13.23753,50.39073],[13.23834,50.39213]],[[13.23753,50.39073],[13.23248,50.39345],[13.22973,50.39749],[13.22587,50.39776],[13.21476,50.39402],[13.21101,50.39393],[13.20082,50.40196],[13.20121,50.40544],[13.22772,50.41958],[13.23263,50.42476],[13.25074,50.42879],[13.25663,50.42855],[13.25867,50.422]],[[13.23934,50.38915],[13.23719,50.39014],[13.23753,50.39073]],[[13.23779,50.39058],[13.23753,50.39073]],[[13.23779,50.39058],[13.23834,50.39213]],[[13.23934,50.38915],[13.23767,50.39024],[13.23779,50.39058]],[[13.23779,50.39058],[13.24314,50.38769],[13.24877,50.37752],[13.26552,50.37056],[13.26899,50.36993],[13.27496,50.36436],[13.2868,50.35784],[13.29287,50.35646],[13.30555,50.35617],[13.3197,50.34325],[13.32523,50.34173],[13.32917,50.34259],[13.32965,50.34482]],[[13.23834,50.39213],[13.24266,50.4012],[13.24272,50.40164]],[[13.27032,50.3676],[13.24755,50.37728],[13.24167,50.38789],[13.23934,50.38915]],[[13.24845,50.40507],[13.2468,50.40532],[13.24425,50.40455],[13.24299,50.40333],[13.24353,50.40243]],[[13.25076,50.41346],[13.24885,50.41351],[13.2448,50.40942],[13.24845,50.40507]],[[13.32643,50.34518],[13.32463,50.34264],[13.32028,50.34352],[13.30361,50.35872],[13.30233,50.36187],[13.30166,50.3647],[13.301,50.36712],[13.28222,50.38663],[13.28277,50.38913],[13.27486,50.39661],[13.25064,50.40247],[13.24845,50.40507]],[[13.26306,50.14385],[13.26234,50.14289],[13.25953,50.13638],[13.25211,50.1321],[13.25171,50.12811]],[[13.25867,50.422],[13.25811,50.42087]],[[13.25867,50.422],[13.25996,50.42093]],[[13.26919,50.15186],[13.27459,50.15905]],[[13.27193,50.36579],[13.27196,50.36615],[13.27032,50.3676]],[[13.27269,50.36527],[13.27295,50.36549],[13.2721,50.36647],[13.27032,50.3676]],[[13.2718,50.36449],[13.27269,50.36527]],[[13.2718,50.36449],[13.27193,50.36579]],[[13.31234,50.34113],[13.31543,50.34558],[13.30639,50.35384],[13.3041,50.3553],[13.29248,50.35557],[13.28628,50.35701],[13.27533,50.36305],[13.2718,50.36449]],[[13.27269,50.36527],[13.27193,50.36579]],[[13.27269,50.36527],[13.27449,50.36405],[13.28644,50.35745],[13.29261,50.35602],[13.30517,50.35573],[13.31925,50.34287],[13.32535,50.3412],[13.32979,50.34222],[13.33044,50.34472]],[[13.28176,50.16846],[13.28754,50.17608],[13.2881,50.2038],[13.28013,50.24427],[13.27621,50.25285],[13.27226,50.26122],[13.26581,50.27306],[13.24848,50.29089],[13.25682,50.30191],[13.26546,50.31256],[13.30387,50.3242],[13.31743,50.32998],[13.32027,50.33962],[13.32464,50.34059],[13.32621,50.34101],[13.3303,50.34189],[13.33183,50.34523]],[[13.32515,50.34797],[13.32606,50.34923]],[[13.32563,50.3479],[13.32606,50.34923]],[[13.32606,50.34923],[13.32448,50.35137],[13.32503,50.35813],[13.33018,50.37149]],[[13.32643,50.34518],[13.32789,50.34653]],[[13.32643,50.34518],[13.32742,50.34661]],[[13.72073,50.30287],[13.71978,50.29906],[13.71668,50.29718],[13.66688,50.28863],[13.62887,50.28685],[13.59178,50.27621],[13.56593,50.27024],[13.50076,50.28378],[13.45909,50.28235],[13.43043,50.31648],[13.39792,50.33288],[13.37322,50.33614],[13.36088,50.33769],[13.35637,50.33513],[13.34487,50.33654],[13.33852,50.34527],[13.33761,50.34768],[13.33198,50.34986],[13.32766,50.34912],[13.32694,50.34766]],[[13.32872,50.34729],[13.32893,50.34831],[13.33196,50.34935]],[[13.32952,50.34712],[13.32951,50.348],[13.33196,50.34935]],[[13.32965,50.34482],[13.3306,50.34599]],[[13.32965,50.34482],[13.32992,50.34613]],[[13.33018,50.37149],[13.33283,50.37837],[13.33869,50.37992]],[[13.33124,50.37142],[13.33018,50.37149]],[[13.33044,50.34472],[13.33137,50.34582]],[[13.33044,50.34472],[13.33099,50.34589]],[[13.51188,50.20695],[13.49869,50.21946],[13.49829,50.21994],[13.49601,50.22202],[13.47979,50.23738],[13.4238,50.30865],[13.40285,50.32983],[13.38984,50.33348],[13.36109,50.33721],[13.35656,50.33466],[13.3444,50.33613],[13.33787,50.34512],[13.33693,50.34741],[13.33196,50.34935]],[[13.33245,50.34653],[13.33389,50.34783],[13.33533,50.34752],[13.34389,50.33577],[13.38458,50.33073],[13.4229,50.30882],[13.47919,50.23716],[13.5196,50.19826],[13.53494,50.1895],[13.53564,50.18902]],[[13.33869,50.37992],[13.33926,50.38007]],[[13.33869,50.37992],[13.33888,50.38049]],[[13.51188,50.20695],[13.51473,50.20393],[13.51782,50.20204],[13.53666,50.18898]],[[13.51188,50.20695],[13.51514,50.20414],[13.51825,50.20229],[13.5372,50.18913]],[[13.67936,50.42918],[13.68126,50.42977],[13.6849,50.42971],[13.69124,50.42678],[13.70192,50.41459],[13.69649,50.40416],[13.69633,50.39964],[13.69709,50.3979]],[[13.68191,50.42879],[13.68053,50.42843]],[[13.69437,50.40221],[13.69596,50.40457],[13.70099,50.41426],[13.69274,50.42409],[13.69069,50.42644],[13.68273,50.42937],[13.68111,50.42927]],[[13.6814,50.4279],[13.68191,50.42879]],[[13.68191,50.42879],[13.68283,50.42881],[13.69016,50.42608],[13.70023,50.41423],[13.69526,50.40465],[13.69437,50.40221]],[[13.69594,50.39905],[13.69514,50.40018],[13.69437,50.40221]],[[13.69594,50.39905],[13.69632,50.39765]],[[13.69594,50.39905],[13.69671,50.39776]],[[13.70758,50.41254],[13.69741,50.40064],[13.69682,50.39956]],[[13.69766,50.39809],[13.69682,50.39956]],[[13.69682,50.39956],[13.69803,50.39821]],[[13.72073,50.30287],[13.72741,50.34165],[13.726,50.35391],[13.71662,50.36429],[13.71613,50.36902],[13.72395,50.37155],[13.72149,50.39276],[13.71146,50.39794],[13.69963,50.39444],[13.69807,50.3952],[13.6974,50.39575]],[[13.69883,50.39544],[13.69778,50.39587]],[[13.69883,50.39544],[13.69815,50.396]],[[13.69883,50.39544],[13.70018,50.39497],[13.71156,50.39841],[13.71866,50.39474],[13.7226,50.39313],[13.72243,50.39019],[13.72461,50.37132],[13.72425,50.369],[13.72562,50.35711],[13.72663,50.35394],[13.72805,50.34162],[13.72137,50.30285],[13.72103,50.29928],[13.723,50.29825],[13.76973,50.30536],[13.83383,50.30295],[13.85743,50.29668],[13.92403,50.28868],[13.94064,50.28724],[13.94229,50.28714]],[[13.69908,50.39631],[13.70017,50.39588]],[[13.70017,50.39588],[13.69946,50.39643]],[[14.37911,50.61302],[14.36953,50.60736],[14.36272,50.60546],[14.35759,50.60395],[14.34075,50.59916],[14.31786,50.59537],[14.30451,50.58848],[14.31992,50.54374],[14.24158,50.47337],[14.21593,50.47331],[14.16691,50.46884],[14.15617,50.46805],[14.12297,50.46418],[14.08726,50.47855],[14.0686,50.48324],[14.03087,50.46599],[14.00544,50.4511],[13.94407,50.42809],[13.88065,50.41122],[13.84492,50.40595],[13.82131,50.40367],[13.78855,50.39194],[13.76136,50.38535],[13.73273,50.3959],[13.72252,50.39533],[13.71535,50.39736],[13.71103,50.39936],[13.70017,50.39588]],[[13.72073,50.30287],[13.72036,50.29901]],[[13.80343,50.58207],[13.8041,50.582]],[[13.80352,50.58222],[13.8041,50.582]],[[13.8041,50.582],[13.80576,50.58207],[13.81015,50.58335],[13.81412,50.58357],[13.81706,50.58392],[13.82463,50.584],[13.84197,50.57296],[13.84943,50.57234],[13.85776,50.57065],[13.86114,50.56838]],[[14.41131,50.57712],[14.41183,50.57402]],[[14.41185,50.57392],[14.41228,50.57148],[14.37862,50.54904],[14.37543,50.51021],[14.38763,50.47798],[14.41531,50.45566],[14.40613,50.44264],[14.41745,50.43761]]]}},{"type":"Feature","properties":{"kv":400,"napeti":"400 kV + 220 kV"},"geometry":{"type":"MultiLineString","coordinates":[[[13.24985,50.14476],[13.25233,50.14531]],[[13.26875,50.15224],[13.27399,50.15917]],[[13.31234,50.34113],[13.24243,50.30991],[13.24673,50.29193],[13.26524,50.27289],[13.27952,50.24418],[13.28748,50.20379],[13.28691,50.17617],[13.28097,50.16836]],[[13.70758,50.41254],[13.72377,50.43319],[13.74932,50.45359],[13.79738,50.49063],[13.80141,50.49367],[13.80569,50.49702],[13.83512,50.51072],[13.83934,50.5158],[13.84092,50.52142],[13.84552,50.5254],[13.84962,50.52909],[13.85911,50.53172],[13.86553,50.53108],[13.86772,50.53206],[13.86723,50.5365],[13.86522,50.553],[13.85807,50.56103],[13.86114,50.56838]]]}}]}